title,totalScore,reviewsCount,street,city,state,countryCode,website,phone,categoryName,url
באבא גאקו - בורקס טורקי,4.9,38,HaRav Uziel St 2,Shlomi,,IL,https://www.facebook.com/babajako.shlomi?mibextid=LQQJ4d,+972 76-861-3159,Fast food restaurant,https://www.google.com/maps/search/?api=1&query=%D7%91%D7%90%D7%91%D7%90%20%D7%92%D7%90%D7%A7%D7%95%20-%20%D7%91%D7%95%D7%A8%D7%A7%D7%A1%20%D7%98%D7%95%D7%A8%D7%A7%D7%99&query_place_id=ChIJ12nQ0LvTHRURzc3S1Bow0Kg
Doctor Sushi Nahariya סושי נהריה,4.8,30,Wolfson St 52,Nahariyya,,IL,http://marea.pro/sushi,+972 52-367-0815,Sushi restaurant,https://www.google.com/maps/search/?api=1&query=Doctor%20Sushi%20Nahariya%20%D7%A1%D7%95%D7%A9%D7%99%20%D7%A0%D7%94%D7%A8%D7%99%D7%94&query_place_id=ChIJo-oyx5HPHRURzqHxSHNBYdM
"אוסול - פלאפל, חומוס פול (סניף שלומי)",4.5,340,מסעף שלומי מערב,Shlomi,,IL,https://israelbusinessguide.com/catalog/shlomi/falafel_humus_--____/,+972 4-779-2909,Falafel restaurant,https://www.google.com/maps/search/?api=1&query=%D7%90%D7%95%D7%A1%D7%95%D7%9C%20-%20%D7%A4%D7%9C%D7%90%D7%A4%D7%9C%2C%20%D7%97%D7%95%D7%9E%D7%95%D7%A1%20%D7%A4%D7%95%D7%9C%20(%D7%A1%D7%A0%D7%99%D7%A3%20%D7%A9%D7%9C%D7%95%D7%9E%D7%99)&query_place_id=ChIJSY9A4yzTHRURhsZzFaoHV_U
HaTsuk Restaurant,4.1,1879,,Rosh HaNikra,,IL,https://hatzuk.co.il/,+972 4-601-6849,Kosher restaurant,https://www.google.com/maps/search/?api=1&query=HaTsuk%20Restaurant&query_place_id=ChIJfY0ALHDRHRURaVMSQW1SB98
Pizza Bar fornetto,4.5,758,תחנת דלק דור אלון,Gesher HaZiv,,IL,http://fornetto.co.il/,+972 4-900-1400,Pizza restaurant,https://www.google.com/maps/search/?api=1&query=Pizza%20Bar%20fornetto&query_place_id=ChIJATLeOufRHRUR6Oaa2xmZN18
פלאפל איל,4.7,167,Ha-Hagana St 20,Nahariyya,,IL,https://israelbusinessguide.com/catalog/naariya/falafel__/,,Restaurant,https://www.google.com/maps/search/?api=1&query=%D7%A4%D7%9C%D7%90%D7%A4%D7%9C%20%D7%90%D7%99%D7%9C&query_place_id=ChIJYVtw-UbOHRURVFWn1vC59ZA
Prestige Restaurant,3.6,176,Derech Ben Gurion 61-67,Bat Yam,,IL,https://israelbusinessguide.com/catalog/bat-yam/prestij_russkiy_restoran/,+972 52-267-2664,Restaurant,https://www.google.com/maps/search/?api=1&query=Prestige%20Restaurant&query_place_id=ChIJh9pUDxizAhURAfrPOymLKjs
Abu Nassar,4.2,2465,Kidron St 34,Tel Aviv-Yafo,,IL,http://abunassarhinnawi.rest.co.il/,+972 3-506-7132,Family restaurant,https://www.google.com/maps/search/?api=1&query=Abu%20Nassar&query_place_id=ChIJxZcYCTSzAhURXRl2Z5-cZuA
Gorilla,3.8,2759,Derech Ben Gurion 81,Bat Yam,,IL,https://www.gorillacafe.co.il/,+972 77-410-1422,Kosher restaurant,https://www.google.com/maps/search/?api=1&query=Gorilla&query_place_id=ChIJzQSaiRmzAhURBuehk_bH8oA
שווארמה בינו,3.3,112,David Razi'el St 29,Tel Aviv-Yafo,,IL,https://israelbusinessguide.com/catalog/tel-aviv/shawarma__/,+972 3-682-2842,Gyro restaurant,https://www.google.com/maps/search/?api=1&query=%D7%A9%D7%95%D7%95%D7%90%D7%A8%D7%9E%D7%94%20%D7%91%D7%99%D7%A0%D7%95&query_place_id=ChIJK6miv75MHRURyqc2wH4rDsM
Sir Abdul,4.2,537,Pinkhas Ben Ya'ir St 4,Tel Aviv-Yafo,,IL,https://www.facebook.com/SirAbdul.jaffa/,+972 53-776-9738,Restaurant,https://www.google.com/maps/search/?api=1&query=Sir%20Abdul&query_place_id=ChIJU1iBKeZNHRURGGRbGFCD6as
Sunrise,4.3,298,Derech Ben Gurion 143,Bat Yam,,IL,https://bestrest.rest/ru/restaurants/sunrise,,Restaurant,https://www.google.com/maps/search/?api=1&query=Sunrise&query_place_id=ChIJDUU7DwWzAhURneYdA5_TSsI
Papa Johns Pizza,2.3,3,DELILA BEACH,Ashkelon,,IL,http://www.papajohns.co.il/?utm_source=yext-google-my-business&utm_medium=organic-search&utm_campaign=local-listing,+972 3-772-2277,Pizza restaurant,https://www.google.com/maps/search/?api=1&query=Papa%20Johns%20Pizza&query_place_id=ChIJ7WSzIgedAhURzFS_XQ1Y4EM
Pizza Hut,3.8,466,Eli Cohen St 21,Ashkelon,,IL,https://www.pizzahut.co.il/branch/%D7%90%D7%A9%D7%A7%D7%9C%D7%95%D7%9F/,+972 1-700-506-070,Pizza restaurant,https://www.google.com/maps/search/?api=1&query=Pizza%20Hut&query_place_id=ChIJn7uOXEOcAhUR0uZ76JGLmkg
Papa Johns Pizza,,0,Jerusalem Blvd 95,Holon,,IL,http://www.papajohns.co.il/?utm_source=yext-google-my-business&utm_medium=organic-search&utm_campaign=local-listing,+972 3-772-2277,Pizza restaurant,https://www.google.com/maps/search/?api=1&query=Papa%20Johns%20Pizza&query_place_id=ChIJnydpjhVNHRURs__RSPBUZRQ
מיסטר B דימונה,4.8,59,Derech HaShalom 23,Dimona,,IL,https://misterb.click-eat.co.il/,+972 77-543-5261,Hamburger restaurant,https://www.google.com/maps/search/?api=1&query=%D7%9E%D7%99%D7%A1%D7%98%D7%A8%20B%20%D7%93%D7%99%D7%9E%D7%95%D7%A0%D7%94&query_place_id=ChIJe8LAljlFAhURnx0uXj1IqRw
פדרה ומדרה - padre and madre,4.8,88,פרץ סנטר 1 מרכז פרץ סנטר,Dimona,,IL,https://www.padre-madre.co.il/,+972 54-306-0966,Italian restaurant,https://www.google.com/maps/search/?api=1&query=%D7%A4%D7%93%D7%A8%D7%94%20%D7%95%D7%9E%D7%93%D7%A8%D7%94%20-%20padre%20and%20madre&query_place_id=ChIJjQ2XCNdHAhURHhf-Z94uRL0
The Miznon,4.6,60,"Manevech St and, Derech Barlev",Dimona,,IL,https://www.happycow.net/reviews/the-miznon-dimona-25849,+972 3-716-8977,Vegan restaurant,https://www.google.com/maps/search/?api=1&query=The%20Miznon&query_place_id=ChIJPbMpgv5HAhURMlcvjd8RhKQ
Pizza Hut,3.9,340,בן גוריון 134,Bat Yam,,IL,https://www.pizzahut.co.il/branch/%D7%91%D7%AA-%D7%99%D7%9D/,+972 1-700-506-070,Pizza restaurant,https://www.google.com/maps/search/?api=1&query=Pizza%20Hut&query_place_id=ChIJw2fxTDmzAhUR-hHQKayD9mo
Adelina,4.5,2181,,Kabri,,IL,http://adelina.org.il/,+972 4-952-3707,Restaurant,https://www.google.com/maps/search/?api=1&query=Adelina&query_place_id=ChIJwbZ9YfPNHRURy2obsiIcKo4
"McDonald""s",3.5,462,HaKishon St 9,Yavne,,IL,https://www.mcdonalds.co.il/,+972 54-336-0226,Fast food restaurant,https://www.google.com/maps/search/?api=1&query=McDonald%22s&query_place_id=ChIJM-13F4CwAhURKYpv2Yvr-r0
Pizza Stori Ashkelon,4.1,727,Eli Cohen St 37,Ashkelon,,IL,https://www.facebook.com/pizzastoryil?mibextid=LQQJ4d,+972 8-856-2562,Pizza restaurant,https://www.google.com/maps/search/?api=1&query=Pizza%20Stori%20Ashkelon&query_place_id=ChIJ-5fywWucAhURk3ATR5r9l6s
סטאי תל אביב סושי בר - The Setai Tel Aviv Sushi bar,3.5,52,David Razi'el St 22,Tel Aviv-Yafo,,IL,https://www.thesetaihotels.com/en-us/hotels/tel-aviv,+972 3-601-6000,Sushi restaurant,https://www.google.com/maps/search/?api=1&query=%D7%A1%D7%98%D7%90%D7%99%20%D7%AA%D7%9C%20%D7%90%D7%91%D7%99%D7%91%20%D7%A1%D7%95%D7%A9%D7%99%20%D7%91%D7%A8%20-%20The%20Setai%20Tel%20Aviv%20Sushi%20bar&query_place_id=ChIJryPRFBxNHRURi36hz_mVn5I
McDonald's,3.5,945,,Be'er Tuvia,,IL,https://www.mcdonalds.co.il/,+972 52-944-0149,Fast food restaurant,https://www.google.com/maps/search/?api=1&query=McDonald's&query_place_id=ChIJ9Z0Loe69AhURbgcUrgsYhh0
American Pizza,4.1,205,"1 מתחם מג'יק, Shevet Levi St 16",Ashdod,,IL,https://israelbusinessguide.com/catalog/ashdod/american_pizza_ashdod/,+972 8-866-6553,Pizza restaurant,https://www.google.com/maps/search/?api=1&query=American%20Pizza&query_place_id=ChIJ8Uoi_16iAhURT1yxNn31RtM
McDonalds - Planet,3.2,686,HaMea VeEsrim St 4,Rishon LeZion,,IL,https://www.mcdonalds.co.il/,+972 52-944-0194,Fast food restaurant,https://www.google.com/maps/search/?api=1&query=McDonalds%20-%20Planet&query_place_id=ChIJ6csj3MCzAhURfZXRckzWMCg
Gizel Restaurant,4.1,281,דרך הים 34,Yavne,,IL,https://www.myavne.co.il/gizel---%D7%92-%D7%99%D7%96%D7%9C-%D7%9E%D7%A1%D7%A2%D7%93%D7%AA-%D7%91%D7%A9%D7%A8%D7%99%D7%9D,+972 8-932-2755,Restaurant,https://www.google.com/maps/search/?api=1&query=Gizel%20Restaurant&query_place_id=ChIJmycMo4KwAhURljtCJA0vyCA
סוגיס,4.6,19,"Tsvi Bornstein St 801, 7",Yeruham,,IL,https://sugis.orderss.co.il/,+972 52-333-5207,Hamburger restaurant,https://www.google.com/maps/search/?api=1&query=%D7%A1%D7%95%D7%92%D7%99%D7%A1&query_place_id=ChIJ-xjBTLw_AhURRf94T8VZTM4
Abu Hassan,4.4,5074,Shivtei Israel St 14,Tel Aviv-Yafo,,IL,https://m.facebook.com/pages/Abu-Hassan/396398840415380,+972 3-682-8355,Restaurant,https://www.google.com/maps/search/?api=1&query=Abu%20Hassan&query_place_id=ChIJaTKN-LlMHRURZEm7OjbBl4I
Pizza Italiano,4.0,212,Johannesburg St 49,Ashkelon,,IL,http://sites.ashkelonim.co.il/ital,+972 8-678-8656,Pizza delivery,https://www.google.com/maps/search/?api=1&query=Pizza%20Italiano&query_place_id=ChIJ7ahgxT6cAhURWPqeqzBFdxc
San Sushi Ashkelon,4.0,589,Yefe Nof St 27,Ashkelon,,IL,http://sun-sushi.co.il/,+972 8-850-3311,Sushi restaurant,https://www.google.com/maps/search/?api=1&query=San%20Sushi%20Ashkelon&query_place_id=ChIJPcefK6CeAhURPTvozHmQpFc
Pundak Benny,3.7,612,Derech Ben Gurion 109,Bat Yam,,IL,http://www.rol.co.il/sites/pundak-benny/,+972 73-758-4292,Grill,https://www.google.com/maps/search/?api=1&query=Pundak%20Benny&query_place_id=ChIJLeCecT2zAhURPtOj_cVhTWo
Italian at Ashdod,3.6,124,Onyon St 5,Ashdod,,IL,http://italian.co.il/,+972 50-999-0945,Restaurant,https://www.google.com/maps/search/?api=1&query=Italian%20at%20Ashdod&query_place_id=ChIJXYEFfU2iAhURmEV_3VUb8jQ
River Noodles Bar,3.8,404,"מרכז רוגובין, HaDugit St 16",Yavne,,IL,http://river-bar.co.il/,+972 3-716-1520,Asian restaurant,https://www.google.com/maps/search/?api=1&query=River%20Noodles%20Bar&query_place_id=ChIJfRNSSme6AhUREknrvewWjTs
Hummus Inty,4.7,493,Tsvi Bornstein St 657,Yeruham,,IL,http://inti.co.il/,+972 55-307-3333,Restaurant,https://www.google.com/maps/search/?api=1&query=Hummus%20Inty&query_place_id=ChIJsdkJLI8_AhURqdno3G4L4UQ
badook burger,4.4,92,Tsahal St 28,Gan Yavne,,IL,https://apps.apple.com/il/app/%D7%91%D7%93%D7%95%D7%A7/id6451134176?l=he,+972 50-771-2377,Hamburger restaurant,https://www.google.com/maps/search/?api=1&query=badook%20burger&query_place_id=ChIJrUs2Nge9AhURR7svTff0Evs
Falafel Boaron,4.5,661,Herzl St 44,Ashkelon,,IL,https://did.li/boaron,+972 8-860-3033,Fast food restaurant,https://www.google.com/maps/search/?api=1&query=Falafel%20Boaron&query_place_id=ChIJV2gC6HGcAhUR5Hv1FCJjjzw
Joya,4.0,1394,HaNamal St 9,Ashkelon,,IL,http://www.joya-sushi.co.il/,+972 8-668-6565,Asian restaurant,https://www.google.com/maps/search/?api=1&query=Joya&query_place_id=ChIJqfZZ9zWcAhURI0-ozYLuDKY
HaMaavara Bar,4.2,69,Tsvi Bornstein St 1,Yeruham,,IL,https://easy.co.il/page/10019668,+972 50-565-2030,Bar & grill,https://www.google.com/maps/search/?api=1&query=HaMaavara%20Bar&query_place_id=ChIJp0ohknA_AhURH0xkcmujZjE
בולס בורגר נהריה,4.5,105,Ha-Hagana St 29,Nahariyya,,IL,https://bullsburger.co.il/%D7%AA%D7%A4%D7%A8%D7%99%D7%98-%D7%A0%D7%94%D7%A8%D7%99%D7%94/,+972 1-700-700-722,Hamburger restaurant,https://www.google.com/maps/search/?api=1&query=%D7%91%D7%95%D7%9C%D7%A1%20%D7%91%D7%95%D7%A8%D7%92%D7%A8%20%D7%A0%D7%94%D7%A8%D7%99%D7%94&query_place_id=ChIJ3yt0zsTPHRURPNvZuvCHkyo
Nisso HaDayag,3.8,1786,"מתחם המרינה, Bat Galim St 1",Ashkelon,,IL,http://www.nissorest.co.il/,+972 8-995-4545,Restaurant,https://www.google.com/maps/search/?api=1&query=Nisso%20HaDayag&query_place_id=ChIJvbRJxDWcAhURhKDET2sQqeg
רובן אשקלון,4.2,265,HaNamal St 9,Ashkelon,,IL,https://www.rubenisrael.co.il/branches/ashkelon,+972 8-675-3353,Hamburger restaurant,https://www.google.com/maps/search/?api=1&query=%D7%A8%D7%95%D7%91%D7%9F%20%D7%90%D7%A9%D7%A7%D7%9C%D7%95%D7%9F&query_place_id=ChIJna8HLLOdAhUR6d97z8LJFq8
Landwer Cafe,3.8,1416,HaNamal St 9,Ashkelon,,IL,http://www.landwercafe.co.il/,+972 8-991-9960,Coffee shop,https://www.google.com/maps/search/?api=1&query=Landwer%20Cafe&query_place_id=ChIJBeEn4DWcAhUR3EiiLzRSS8g
סושי וייט,4.1,631,Shidlovski St 1,Yavne,,IL,http://whitesushibar.co.il/,+972 8-932-8888,Sushi restaurant,https://www.google.com/maps/search/?api=1&query=%D7%A1%D7%95%D7%A9%D7%99%20%D7%95%D7%99%D7%99%D7%98&query_place_id=ChIJAS_fLoGwAhURqmb4h83EXAw
Benny the Fisherman,3.8,1917,HaTayelet 19,Rishon LeZion,,IL,http://www.rol.co.il/sites/benny-hadayag-rishon/,+972 3-544-0050,Fish restaurant,https://www.google.com/maps/search/?api=1&query=Benny%20the%20Fisherman&query_place_id=ChIJ-R_PcayzAhURLC1Q03LHj1g
The Pizzeria,4.4,582,Derech Ben Gurion 136,Bat Yam,,IL,http://thepizzeria.co.il/,+972 1-700-555-077,Pizza restaurant,https://www.google.com/maps/search/?api=1&query=The%20Pizzeria&query_place_id=ChIJQ-TfKwGzAhURDd3IseCfzvw
Shipudei Tzipora,3.8,2062,Sha'ul Bar St 5,Bat Yam,,IL,http://tzipora-batyam.co.il/,+972 3-659-1432,Middle Eastern restaurant,https://www.google.com/maps/search/?api=1&query=Shipudei%20Tzipora&query_place_id=ChIJ0aNl4juzAhURtlCn8pMud0k
Holland Chips,4.3,576,Rogozin St 74,Ashdod,,IL,https://hollandchips.orderss.co.il/,+972 77-200-5463,Restaurant,https://www.google.com/maps/search/?api=1&query=Holland%20Chips&query_place_id=ChIJDcSyxaujAhURaLnIZznELfA
Shemesh Pizza,4.2,36,"מ""ד המעפילים 215",Dimona,,IL,https://pizza-shemesh.co.il/,+972 8-374-0077,Pizza restaurant,https://www.google.com/maps/search/?api=1&query=Shemesh%20Pizza&query_place_id=ChIJcVG2DANGAhURblIFIVSU1kE
pizza pazzaz dimona,4.1,194,"מלכי ישראל 1045, Malkei Israel",Tel Aviv-Yafo,,IL,http://www.piza-pazzaz.co.il/%D7%94%D7%A1%D7%A0%D7%99%D7%A4%D7%99%D7%9D-%D7%A9%D7%9C%D7%A0%D7%95/%D7%A1%D7%A0%D7%99%D7%A4%D7%99%D7%9D-%D7%91%D7%93%D7%A8%D7%95%D7%9D/%D7%A1%D7%A0%D7%99%D7%A3-%D7%91%D7%9F-%D7%92%D7%95%D7%A8%D7%99%D7%95%D7%9F-%D7%93%D7%99%D7%9E%D7%95%D7%A0%D7%94/,+972 8-657-0550,Pizza restaurant,https://www.google.com/maps/search/?api=1&query=pizza%20pazzaz%20dimona&query_place_id=ChIJYStdaf5FAhURRYleTluH_B4
מוזס שופ דימונה,4.0,25,מסוף אגד/קניון פרץ סנטר,Dimona,,IL,https://moses-shop.com/dimona/,+972 52-900-3246,Hamburger restaurant,https://www.google.com/maps/search/?api=1&query=%D7%9E%D7%95%D7%96%D7%A1%20%D7%A9%D7%95%D7%A4%20%D7%93%D7%99%D7%9E%D7%95%D7%A0%D7%94&query_place_id=ChIJMa1pMxVHAhURL_CO_z9sbIo
Pizza Hut,4.0,124,קניון פרץ,Dimona,,IL,https://www.pizzahut.co.il/branch/dimona/,+972 1-700-506-070,Pizza restaurant,https://www.google.com/maps/search/?api=1&query=Pizza%20Hut&query_place_id=ChIJm_2daBRGAhURF1czkZ3LkFc
פיתה בשר - סניף דימונה,4.1,12,"מתחם פז סנטר, פיתה בשר",Dimona,,IL,https://www.rest.co.il/rest/80383448/,+972 8-665-9771,Fast food restaurant,https://www.google.com/maps/search/?api=1&query=%D7%A4%D7%99%D7%AA%D7%94%20%D7%91%D7%A9%D7%A8%20-%20%D7%A1%D7%A0%D7%99%D7%A3%20%D7%93%D7%99%D7%9E%D7%95%D7%A0%D7%94&query_place_id=ChIJ7e4TJMtHAhURcGjocPLm3y8
Falafel Arava,4.6,20,,Hazeva,,IL,http://www.instagram.com/falafel.arava/,+972 50-919-8187,Falafel restaurant,https://www.google.com/maps/search/?api=1&query=Falafel%20Arava&query_place_id=ChIJNzHnaanNAxUR0SY2eX3olZ0
Pizza,4.0,188,Tsvi Bornstein St 312,Yeruham,,IL,http://www.piza-pazzaz.co.il/%D7%94%D7%A1%D7%A0%D7%99%D7%A4%D7%99%D7%9D-%D7%A9%D7%9C%D7%A0%D7%95/%D7%A1%D7%A0%D7%99%D7%A4%D7%99%D7%9D-%D7%91%D7%93%D7%A8%D7%95%D7%9D/%D7%A1%D7%A0%D7%99%D7%A3-%D7%99%D7%A8%D7%95%D7%97%D7%9D/,+972 8-659-5522,Pizza delivery,https://www.google.com/maps/search/?api=1&query=Pizza&query_place_id=ChIJU_6mLAFGAhURJLGACdZyvTQ
פיצה זברה,4.4,267,Mivtsa Sinai St 16,Bat Yam,,IL,https://www.facebook.com/p/%D7%A4%D7%99%D7%A6%D7%94-%D7%96%D7%91%D7%A8%D7%94-100061943934972/,+972 3-946-7222,Pizza restaurant,https://www.google.com/maps/search/?api=1&query=%D7%A4%D7%99%D7%A6%D7%94%20%D7%96%D7%91%D7%A8%D7%94&query_place_id=ChIJo9aC1kOzAhURsLKe80To8kI
Turkish Original Burekas,4.0,133,HaPo'alim St 5,Dimona,,IL,https://israelbusinessguide.com/catalog/dimona/turkish_original_burekas/,+972 8-940-2280,Buffet restaurant,https://www.google.com/maps/search/?api=1&query=Turkish%20Original%20Burekas&query_place_id=ChIJOwyxdBNGAhURkTcfNKLxMMI
yaffa's restaurant,4.5,13,0,Negba,,IL,https://www.facebook.com/%D7%94%D7%9E%D7%A1%D7%A2%D7%93%D7%94-%D7%A9%D7%9C-%D7%99%D7%A4%D7%94-104433380921076/,+972 8-677-4671,Restaurant,https://www.google.com/maps/search/?api=1&query=yaffa's%20restaurant&query_place_id=ChIJj5C3BQKaAhURtkdpxSEML-k
Avazim Restaurant,2.9,436,"יס פלאנט, HaMea VeEsrim St 4",Rishon LeZion,,IL,http://haavazim.com/,+972 73-758-5408,Kosher restaurant,https://www.google.com/maps/search/?api=1&query=Avazim%20Restaurant&query_place_id=ChIJOZYbRRSzAhURSKY0rSDfUxc
Tzachi Meats,4.1,1132,Herzl St 82,Bat Yam,,IL,http://www.tzahib.co.il/,+972 3-659-0742,Kosher restaurant,https://www.google.com/maps/search/?api=1&query=Tzachi%20Meats&query_place_id=ChIJCaP56hazAhUROq1Dc7afzS4
Sushi House Dimona,3.6,200,כביש 25,Dimona,,IL,https://sushihouse.co.il/,+972 77-506-9224,Asian restaurant,https://www.google.com/maps/search/?api=1&query=Sushi%20House%20Dimona&query_place_id=ChIJHXnoKflHAhURroo-uUFL-Yo
פיצה גולי Guli דימונה,4.3,61,Leon Birenbo'im St 1,Dimona,,IL,https://tabitisrael.co.il/tabit-order?siteName=guli&step=enter,+972 77-739-2792,Restaurant,https://www.google.com/maps/search/?api=1&query=%D7%A4%D7%99%D7%A6%D7%94%20%D7%92%D7%95%D7%9C%D7%99%20Guli%20%D7%93%D7%99%D7%9E%D7%95%D7%A0%D7%94&query_place_id=ChIJ40AZrRhHAhUR3TpzMzBa3Cc
Mr. jack burgers,4.5,413,Ha'Atsmaut Blvd 77,Bat Yam,,IL,https://mr-jack.web.delivery/,+972 3-647-6737,Hamburger restaurant,https://www.google.com/maps/search/?api=1&query=Mr.%20jack%20burgers&query_place_id=ChIJkyWGUTizAhURO5zqlvC-KhU
פרנקו אשקלון - מסעדה חלבית,4.1,1058,Herzl St 4,Ashkelon,,IL,https://francoashkelon.co.il/,+972 8-672-2243,Restaurant,https://www.google.com/maps/search/?api=1&query=%D7%A4%D7%A8%D7%A0%D7%A7%D7%95%20%D7%90%D7%A9%D7%A7%D7%9C%D7%95%D7%9F%20-%20%D7%9E%D7%A1%D7%A2%D7%93%D7%94%20%D7%97%D7%9C%D7%91%D7%99%D7%AA&query_place_id=ChIJAzgGLXCcAhURiXwfHvkDiKA
Hummus Asli,4.5,2052,Yefet St 73,Tel Aviv-Yafo,,IL,https://www.mishlohim.co.il/menu/8163/,+972 3-681-3435,Israeli restaurant,https://www.google.com/maps/search/?api=1&query=Hummus%20Asli&query_place_id=ChIJUWhAGrZMHRURGsJ0xcpwRBY
Stella Beach,3.9,3110,HaTayelet 6,Rishon LeZion,,IL,https://www.gorillacafe.co.il/,+972 77-410-1422,Fish restaurant,https://www.google.com/maps/search/?api=1&query=Stella%20Beach&query_place_id=ChIJh7iUJhqzAhURRalE-z2KD3w
Urbano,4.1,1282,Olei Zion St 2,Tel Aviv-Yafo,,IL,https://urbano.restaurant/,+972 3-629-1453,Restaurant,https://www.google.com/maps/search/?api=1&query=Urbano&query_place_id=ChIJ4Y55LrlMHRURc2z8zcT6c24
McDonald's,3.5,367,HaMeginim St 56,Gan Yavne,,IL,https://www.mcdonalds.co.il/,+972 52-944-0219,Fast food restaurant,https://www.google.com/maps/search/?api=1&query=McDonald's&query_place_id=ChIJx492iwu9AhURytVB8GZFyTo
Café Café,4.0,1284,קניון פרץ סנטר,Dimona,,IL,http://www.cafecafe.co.il/,+972 8-669-8040,Cafe,https://www.google.com/maps/search/?api=1&query=Caf%C3%A9%20Caf%C3%A9&query_place_id=ChIJ1-AaYRRGAhURFwMW-KGzHdk
בורגראנץ׳,2.9,31,"איזור תעשייה, HaPo'alim St 5",Dimona,,IL,http://www.burgeranch.co.il/,,Hamburger restaurant,https://www.google.com/maps/search/?api=1&query=%D7%91%D7%95%D7%A8%D7%92%D7%A8%D7%90%D7%A0%D7%A5%D7%B3&query_place_id=ChIJ9VsTLxNGAhURXdze9dL_iFY
הדרומית דימונה - מסעדת בשרים כשרה,4.5,129,HaMasger St 78,Dimona,,IL,https://tabitisrael.co.il/%D7%94%D7%96%D7%9E%D7%A0%D7%AA-%D7%9E%D7%A7%D7%95%D7%9D/create-reservation?step=search&orgId=66cdbdc85ddec9271760cd5c&locale=he-IL&source=facebook&type=future_reservation,+972 54-355-5393,Kosher restaurant,https://www.google.com/maps/search/?api=1&query=%D7%94%D7%93%D7%A8%D7%95%D7%9E%D7%99%D7%AA%20%D7%93%D7%99%D7%9E%D7%95%D7%A0%D7%94%20-%20%D7%9E%D7%A1%D7%A2%D7%93%D7%AA%20%D7%91%D7%A9%D7%A8%D7%99%D7%9D%20%D7%9B%D7%A9%D7%A8%D7%94&query_place_id=ChIJXfiFzFdHAhURgSHZqX6sbiU
פרנה בכיכר,4.3,6,Sderot HaNassi 5,Dimona,,IL,https://easy.co.il/page/26142942,+972 8-657-9330,Restaurant,https://www.google.com/maps/search/?api=1&query=%D7%A4%D7%A8%D7%A0%D7%94%20%D7%91%D7%9B%D7%99%D7%9B%D7%A8&query_place_id=ChIJcef7zwRGAhURWcWc4YaCclg
פלאפל בריבוע eat&go - פז דימונה,3.9,9,מתחם פז סנטר דימונה,Dimona,,IL,http://www.falafelbaribua.co.il/,+972 52-415-6722,Fast food restaurant,https://www.google.com/maps/search/?api=1&query=%D7%A4%D7%9C%D7%90%D7%A4%D7%9C%20%D7%91%D7%A8%D7%99%D7%91%D7%95%D7%A2%20eat%26go%20-%20%D7%A4%D7%96%20%D7%93%D7%99%D7%9E%D7%95%D7%A0%D7%94&query_place_id=ChIJrRz6Bu1HAhURas1o-XkW2M0
המסעדה של אסף,,0,Sderot Yig'al Alon 105,Dimona,,IL,https://barkodglobal.com/assafs-restaurant/,+972 53-827-4888,Kosher restaurant,https://www.google.com/maps/search/?api=1&query=%D7%94%D7%9E%D7%A1%D7%A2%D7%93%D7%94%20%D7%A9%D7%9C%20%D7%90%D7%A1%D7%A3&query_place_id=ChIJQRbJabNHAhURT0u3PHSoI8A
פיצה פביוס יבנה Fabios Pizza Yavne,4.0,251,"מרכז מסחרי לב, Sderot Du'ani 20",Yavne,,IL,https://www.mishlohim.co.il/menu/5270/,+972 8-942-0960,Pizza restaurant,https://www.google.com/maps/search/?api=1&query=%D7%A4%D7%99%D7%A6%D7%94%20%D7%A4%D7%91%D7%99%D7%95%D7%A1%20%D7%99%D7%91%D7%A0%D7%94%20Fabios%20Pizza%20Yavne&query_place_id=ChIJm2MEamW6AhURdly9NEPoUN8
מקדונלד'ס - קניון דמרי סנטר דימונה (כשר),2.6,20,"המעפיל פינת, Sderot Golda Me'ir",Dimona,,IL,https://www.mcdonalds.co.il/,+972 54-336-0276,Fast food restaurant,https://www.google.com/maps/search/?api=1&query=%D7%9E%D7%A7%D7%93%D7%95%D7%A0%D7%9C%D7%93'%D7%A1%20-%20%D7%A7%D7%A0%D7%99%D7%95%D7%9F%20%D7%93%D7%9E%D7%A8%D7%99%20%D7%A1%D7%A0%D7%98%D7%A8%20%D7%93%D7%99%D7%9E%D7%95%D7%A0%D7%94%20(%D7%9B%D7%A9%D7%A8)&query_place_id=ChIJE2N4KbFHAhURQg7Okr3Vj9s
Cafè Lyon,4.4,2301,Derech HaRakevet 1,Ashdod,,IL,https://www.facebook.com/%D7%A7%D7%A4%D7%94-%D7%9C%D7%99%D7%95%D7%9F-Big-Fashion-%D7%90%D7%A9%D7%93%D7%95%D7%93-188626381299818/,+972 8-631-5758,Cafe,https://www.google.com/maps/search/?api=1&query=Caf%C3%A8%20Lyon&query_place_id=ChIJjwsP7MKiAhURis1dyzUlt4o
מסעדת ערמונים,4.0,667,,Sde Yoav,,IL,https://armmonim.co.il/,+972 8-979-7997,Kosher restaurant,https://www.google.com/maps/search/?api=1&query=%D7%9E%D7%A1%D7%A2%D7%93%D7%AA%20%D7%A2%D7%A8%D7%9E%D7%95%D7%A0%D7%99%D7%9D&query_place_id=ChIJ2fLJPy6bAhUR5bf40xk0EQc
Calma,3.9,3795,HaTayelet,Ashdod,,IL,http://www.calmashdod.com/,+972 8-866-7241,Restaurant,https://www.google.com/maps/search/?api=1&query=Calma&query_place_id=ChIJ7-RHdRGjAhURYprSPMH_Xj0
Captain Hook,4.2,294,"עמיעד 13, Rabi Khanina St 1",Tel Aviv-Yafo,,IL,https://captainhook.co.il/,+972 3-644-5440,Restaurant,https://www.google.com/maps/search/?api=1&query=Captain%20Hook&query_place_id=ChIJ06oZ2vpNHRURxYzrVi9dttc
נודלסושי,3.6,5,Shalom Shabazi St 34/4,Dimona,,IL,https://nudlesushi.wixsite.com/sushi,+972 50-838-0016,Sushi restaurant,https://www.google.com/maps/search/?api=1&query=%D7%A0%D7%95%D7%93%D7%9C%D7%A1%D7%95%D7%A9%D7%99&query_place_id=ChIJkatiYlRPAhUR_xX5n8pKx9Y
Dosh meat grill,4.1,2509,Ha-Amal St 15,Bat Yam,,IL,https://dosh.co.il/,+972 3-547-7779,Chophouse restaurant,https://www.google.com/maps/search/?api=1&query=Dosh%20meat%20grill&query_place_id=ChIJlxpF4QuzAhURRpGUaGNcStw
Monka Restaurant,4.0,692,Yehuda Hayamit St 15,Tel Aviv-Yafo,,IL,https://israelbusinessguide.com/catalog/tel-aviv/monka_restaurant/,+972 3-682-0723,Bulgarian restaurant,https://www.google.com/maps/search/?api=1&query=Monka%20Restaurant&query_place_id=ChIJF_N6GLpMHRURe4kQhmrtSRY
‎Tony's Tapas Bar & Pizza,4.8,258,Louis Pasteur St 3,Tel Aviv-Yafo,,IL,https://www.b144.co.il/B144_sip/4A1404134470655D4C140C154573645E4B.aspx,+972 50-861-3132,Pizza restaurant,https://www.google.com/maps/search/?api=1&query=%E2%80%8ETony's%20Tapas%20Bar%20%26%20Pizza&query_place_id=ChIJH4yC3ZlNHRURrTxYHJgk9ws
Fairouz Cafe,4.4,650,"1, Louis Pasteur St 5",Tel Aviv-Yafo,,IL,https://bestrest.rest/place.php?lang=il&placeID=891&name=Fairouz+Cafe,+972 50-549-5536,Coffee shop,https://www.google.com/maps/search/?api=1&query=Fairouz%20Cafe&query_place_id=ChIJG1bzfLhMHRURLxGnBo20ho4
Nalaga'at Center,4.7,2251,"חניון נמל יפו, רציף העלייה השנייה, נמל יפו חניה קרובה:",Tel Aviv-Yafo,,IL,http://www.nalagaat.org.il/,+972 3-633-0808,Cultural center,https://www.google.com/maps/search/?api=1&query=Nalaga'at%20Center&query_place_id=ChIJz7coocdMHRURAfec_PSq92g
Talassa,4.4,1058,Derech Ben Gurion 136,Bat Yam,,IL,https://talassa.co.il/,+972 3-740-1939,Restaurant,https://www.google.com/maps/search/?api=1&query=Talassa&query_place_id=ChIJYwelR4OzAhURLpLvg2ZYheI
The Jack ג׳ק פאב,4.4,1920,"מרכז מסחרי חוף דלילה, Yefe Nof St 15",Ashkelon,,IL,https://linktr.ee/thejackpub?utm_source=linktree_profile_share,+972 8-673-7206,Bar,https://www.google.com/maps/search/?api=1&query=The%20Jack%20%D7%92%D7%B3%D7%A7%20%D7%A4%D7%90%D7%91&query_place_id=ChIJFVpoQVGcAhURRnTOyPBYV3k
HaZedef,4.2,3453,Shim'on Israeli St 4,Rishon LeZion,,IL,https://zedef.co.il/,+972 3-962-7111,Seafood restaurant,https://www.google.com/maps/search/?api=1&query=HaZedef&query_place_id=ChIJgSVXzKKzAhURtsk1QTb1CpU
DEDA חוויה גאורגית מקורית (דדה),4.2,1432,Derech Ben Gurion 61,Bat Yam,,IL,http://www.deda.co.il/,+972 1-700-700-165,Georgian restaurant,https://www.google.com/maps/search/?api=1&query=DEDA%20%D7%97%D7%95%D7%95%D7%99%D7%94%20%D7%92%D7%90%D7%95%D7%A8%D7%92%D7%99%D7%AA%20%D7%9E%D7%A7%D7%95%D7%A8%D7%99%D7%AA%20(%D7%93%D7%93%D7%94)&query_place_id=ChIJ-_whqCKzAhURviSqpnRRj3g
JASIA,4.3,1564,Louis Pasteur St 7,Tel Aviv-Yafo,,IL,https://www.jasia.co.il/,+972 3-932-3222,Asian restaurant,https://www.google.com/maps/search/?api=1&query=JASIA&query_place_id=ChIJud9rg8dMHRURgmuX8UpjJo4
Italkiya | איטלקיה בפשפשים,4.1,2076,Olei Zion St 16,Tel Aviv-Yafo,,IL,https://www.italkiya.co.il/,+972 51-553-1525,Italian restaurant,https://www.google.com/maps/search/?api=1&query=Italkiya%20%7C%20%D7%90%D7%99%D7%98%D7%9C%D7%A7%D7%99%D7%94%20%D7%91%D7%A4%D7%A9%D7%A4%D7%A9%D7%99%D7%9D&query_place_id=ChIJOUpWW7lMHRURGN1HJri7q_w
Eri-Ethio Restaurant,4.4,34,Mesilat Yesharim St 90,Tel Aviv-Yafo,,IL,https://www.facebook.com/Eri.Ethio.Restaurant.org/,,Ethiopian restaurant,https://www.google.com/maps/search/?api=1&query=Eri-Ethio%20Restaurant&query_place_id=ChIJRwrc7WBLHRUR5H-p3CUXrpw
פינטה אשדוד,4.4,2573,HaBana'im St 1,Ashdod,,IL,https://www.facebook.com/www.pintarest.co.il?mibextid=LQQJ4d,+972 8-856-6069,Restaurant,https://www.google.com/maps/search/?api=1&query=%D7%A4%D7%99%D7%A0%D7%98%D7%94%20%D7%90%D7%A9%D7%93%D7%95%D7%93&query_place_id=ChIJ15owgWujAhURQefrrzqP9oo
Faruk BaShuk,4.2,3284,Nakhman St 6,Tel Aviv-Yafo,,IL,https://faruk-bashuk.co.il/,+972 3-651-5670,Restaurant,https://www.google.com/maps/search/?api=1&query=Faruk%20BaShuk&query_place_id=ChIJc5KjVrVMHRURAJFAmVWkHfk
PokeShop Rothschild,4.0,117,Herzl St 10,Tel Aviv-Yafo,,IL,https://pokeshop.co.il/,+972 3-653-0883,Poke bar,https://www.google.com/maps/search/?api=1&query=PokeShop%20Rothschild&query_place_id=ChIJJZGbT0RNHRURH0PGwBZ4Elk
Jerusalem International YMCA,4.3,869,King David St 26,Jerusalem,,IL,https://www.ymca.org.il/,+972 2-569-2692,Community center,https://www.google.com/maps/search/?api=1&query=Jerusalem%20International%20YMCA&query_place_id=ChIJz4UMFNMpAxURKAvvZcXTVeQ
Shiraz Restaurant,4.4,7,Kramim Hotel,Kiryat Anavim,,IL,https://www.isrotel.com/eventsmain/hangouts/restaurants/jerusalem/shiraz/,,Fine dining restaurant,https://www.google.com/maps/search/?api=1&query=Shiraz%20Restaurant&query_place_id=ChIJUxo2c1TRAhURKST85IykMPA
Toasty,4.2,5,Baba Sali St 103,Dimona,,IL,https://toasty.ross-kingdom.com/,+972 8-946-1666,Fast food restaurant,https://www.google.com/maps/search/?api=1&query=Toasty&query_place_id=ChIJEwhY5C9HAhUROoosS7NIUJ4
מסעדת לה קוזין La cuisine restaurant,4.6,32,HaBana'im St 5,Ashdod,,IL,https://www.facebook.com/LaCuisinechef,+972 50-948-6135,Restaurant,https://www.google.com/maps/search/?api=1&query=%D7%9E%D7%A1%D7%A2%D7%93%D7%AA%20%D7%9C%D7%94%20%D7%A7%D7%95%D7%96%D7%99%D7%9F%20La%20cuisine%20restaurant&query_place_id=ChIJgfdC7VKjAhURPFK4df6wPTM
Dinings Restaurant,3.9,17,Nachmani St 25,Tel Aviv-Yafo,,IL,https://www.thenorman.com/restaurants-and-bar/dinings/?utm_source=gmb&utm_medium=organic&utm_campaign=gmb-property-the-norman-hotel-dinings-restaurant,+972 3-543-5444,Japanese restaurant,https://www.google.com/maps/search/?api=1&query=Dinings%20Restaurant&query_place_id=ChIJF43KhB5LHRURUYEUX1DalJQ
Ramesses by the box Restaurant,4.1,2261,"הגמנסיה העברית פינת, Ben Perachyah St 7",Tel Aviv-Yafo,,IL,http://ramessesjaffa.com/,+972 3-616-3885,Restaurant,https://www.google.com/maps/search/?api=1&query=Ramesses%20by%20the%20box%20Restaurant&query_place_id=ChIJgxTyur5MHRURQHBSqsH5nk8
Castle,4.5,3044,Ha-Atsma'ut St 85,Ashdod,,IL,https://www.castlebar.co.il/menu?lang=he,+972 54-956-1777,Bar & grill,https://www.google.com/maps/search/?api=1&query=Castle&query_place_id=ChIJeWrN1_iiAhURrtEyehsFqqI
mishlohim pizza,4.0,85,Kharuv St 26,Dimona,,IL,https://www.mishlohim.co.il/menu/8982/,+972 8-999-9645,Pizza restaurant,https://www.google.com/maps/search/?api=1&query=mishlohim%20pizza&query_place_id=ChIJKcG7LlhPAhURDSWKdYZ-8ck
Fish Royale,4.5,4972,פאול גרונינגר 4,Rishon LeZion,,IL,http://www.fishroyal.co.il/,+972 3-961-1169,Seafood restaurant,https://www.google.com/maps/search/?api=1&query=Fish%20Royale&query_place_id=ChIJ2W6CR6OzAhUR-9fm2YNJbMc
Gambrinus,4.5,7086,"שדרות מנחם בגין פינת, Sderot Bnei Brit",Ashdod,,IL,https://gambrinus.co.il/,+972 8-865-5719,Restaurant,https://www.google.com/maps/search/?api=1&query=Gambrinus&query_place_id=ChIJT-5tmPmiAhUR7AzTa3oUFg8
Ibrahim Restaurant,4.2,403,Kikar Palmakh 71237,Lod,,IL,https://www.10bis.co.il/next/restaurants/menu/delivery/30689/%D7%9E%D7%A1%D7%A2%D7%93%D7%AA-%D7%90%D7%91%D7%A8%D7%94%D7%99%D7%9D,+972 8-924-4377,Restaurant,https://www.google.com/maps/search/?api=1&query=Ibrahim%20Restaurant&query_place_id=ChIJoQbRWlzKAhURkvZx4LaQmaQ
Sashimi by Smokin T’s,4.3,303,Nachal Dolev St 56,Bet Shemesh,,IL,https://tabitisrael.co.il/tabit-order?siteName=smokints&step=enter,+972 2-547-7070,Sushi restaurant,https://www.google.com/maps/search/?api=1&query=Sashimi%20by%20Smokin%20T%E2%80%99s&query_place_id=ChIJe-Jx5p3DAhURWlrgDRNcPv0
פיתה פיתה,4.8,306,Yehuda Margoza St 4,Tel Aviv-Yafo,,IL,https://pitapita.co.il/,+972 3-681-8004,Kosher restaurant,https://www.google.com/maps/search/?api=1&query=%D7%A4%D7%99%D7%AA%D7%94%20%D7%A4%D7%99%D7%AA%D7%94&query_place_id=ChIJc4H9gr1NHRUR4pfLHuk6958
Japan Japan,4.2,1342,Ha-Hagana St 21,Jerusalem,,PS,http://www.japan-japan.co.il/,+972 2-532-2805,Japanese restaurant,https://www.google.com/maps/search/?api=1&query=Japan%20Japan&query_place_id=ChIJL35emYwpAxURB7Cc6rQIcEQ
Take A Wok By Sheyan Restaurant,4.4,290,Sarei Israel Blvd 15,Jerusalem,,IL,http://www.takeawok.co.il/,+972 2-663-6679,Chinese takeaway,https://www.google.com/maps/search/?api=1&query=Take%20A%20Wok%20By%20Sheyan%20Restaurant&query_place_id=ChIJbS-Ib5zXAhUR4wTrQVWGfDg
Lod Gate Restaurant,4.1,15,Aba Hillel Silver St 2,Lod,,IL,http://www.2eat.co.il/restaurant.aspx?restid=10971,+972 8-924-7879,Restaurant,https://www.google.com/maps/search/?api=1&query=Lod%20Gate%20Restaurant&query_place_id=ChIJwbg7ZuTKAhURa8ea4SKGwa0
De Lux Restaurant,4.2,351,Derech Ben Gurion 51,Bat Yam,,IL,https://www.deluxe-rest.co.il/,+972 3-659-7274,Restaurant,https://www.google.com/maps/search/?api=1&query=De%20Lux%20Restaurant&query_place_id=ChIJM05CyyKzAhURfs_STNSU-JQ
בית האוכל הבוכרי,4.5,389,Ha-Kerem St 2,Ashkelon,,IL,https://buchari-express.co.il/,+972 8-672-2880,Restaurant,https://www.google.com/maps/search/?api=1&query=%D7%91%D7%99%D7%AA%20%D7%94%D7%90%D7%95%D7%9B%D7%9C%20%D7%94%D7%91%D7%95%D7%9B%D7%A8%D7%99&query_place_id=ChIJezaV5W2cAhURtSl_15hvHDU
Bueno kosher Italian restaurant,4.5,1082,"בית השחף, Mohaliver St 2 ב",Yehud-Monosson,,IL,http://www.bueno-rest.co.il/,+972 3-536-1522,Italian restaurant,https://www.google.com/maps/search/?api=1&query=Bueno%20kosher%20Italian%20restaurant&query_place_id=ChIJD6r_wAU1HRURnYy2fSWI7zc
Little Prague,4.4,2499,Derech Ben Gurion 83,Bat Yam,,IL,http://www.littleprague.co.il/,+972 3-551-4623,Czech restaurant,https://www.google.com/maps/search/?api=1&query=Little%20Prague&query_place_id=ChIJr-JiqJW0AhURbyYJY24tsiU
Hayam Hasini Chinese Restaurant,4.3,502,"מרכז הטקסטיל והאופנה, Shenkar St 3",Tel Aviv-Yafo,,IL,https://www.hayamhasini.com/,+972 3-510-7823,Chinese restaurant,https://www.google.com/maps/search/?api=1&query=Hayam%20Hasini%20Chinese%20Restaurant&query_place_id=ChIJi74cr5BMHRUR5v6rg_rPcts
Sicilia,4.3,1539,Retzif HaAliya HaShniya St 101,Tel Aviv-Yafo,,IL,https://sicilia-jaffa.co.il/,+972 3-656-1615,Italian restaurant,https://www.google.com/maps/search/?api=1&query=Sicilia&query_place_id=ChIJ52N-VcdMHRURA7VuAU-794k
Okinawa Sushi Restaurant,4.2,1626,Shabazi St 46,Tel Aviv-Yafo,,IL,http://www.okinawatlv.co.il/,+972 3-510-1099,Japanese restaurant,https://www.google.com/maps/search/?api=1&query=Okinawa%20Sushi%20Restaurant&query_place_id=ChIJ7U-1oZtMHRURFZZDACfUNZ8
סקון נקון,4.4,846,Rothschild St 119,Rishon LeZion,,IL,http://80184954.rest.co.il/,+972 3-649-9434,Thai restaurant,https://www.google.com/maps/search/?api=1&query=%D7%A1%D7%A7%D7%95%D7%9F%20%D7%A0%D7%A7%D7%95%D7%9F&query_place_id=ChIJWc6AQxS0AhURSPjw6u5uJMc
Eli's Restaurant,4.1,601,Ha-Pisga St 10,Jerusalem,,IL,https://israelbusinessguide.com/catalog/ierusalim/elis_restaurant/,+972 2-530-6363,Fast food restaurant,https://www.google.com/maps/search/?api=1&query=Eli's%20Restaurant&query_place_id=ChIJkSVBsLzXAhURnbAGBsfE0DI
Gracia restaurant - מסעדת גרסיה,4.0,762,Har'el St 10,Mevaseret Zion,,IL,https://www.gracia-rest.co.il/,+972 2-579-0445,Restaurant,https://www.google.com/maps/search/?api=1&query=Gracia%20restaurant%20-%20%D7%9E%D7%A1%D7%A2%D7%93%D7%AA%20%D7%92%D7%A8%D7%A1%D7%99%D7%94&query_place_id=ChIJGaGhoufWAhUR1LLnZyp5xpM
Al-Baghdadi Restaurant,4.6,65,Antonia St 19-21,Jerusalem,,IL,https://m.facebook.com/baghdadirestaurantjerusalem/,+972 2-627-6812,Arab restaurant,https://www.google.com/maps/search/?api=1&query=Al-Baghdadi%20Restaurant&query_place_id=ChIJvY3a-UnXAhURoC4_3n-Ds88
סלון יווני אשדוד,4.5,644,HaTayelet 21,Ashdod,,IL,https://bit.ly/3QGNjue,+972 50-290-2777,Greek restaurant,https://www.google.com/maps/search/?api=1&query=%D7%A1%D7%9C%D7%95%D7%9F%20%D7%99%D7%95%D7%95%D7%A0%D7%99%20%D7%90%D7%A9%D7%93%D7%95%D7%93&query_place_id=ChIJzexdI6ejAhURwUrqo_22738
רובן אשדוד סטאר סנטר ruben‏,4.5,1613,Jabotinski St 43,Ashdod,,IL,https://www.rubenisrael.co.il/branches/ashdod,+972 8-930-5055,American restaurant,https://www.google.com/maps/search/?api=1&query=%D7%A8%D7%95%D7%91%D7%9F%20%D7%90%D7%A9%D7%93%D7%95%D7%93%20%D7%A1%D7%98%D7%90%D7%A8%20%D7%A1%D7%A0%D7%98%D7%A8%20ruben%E2%80%8F&query_place_id=ChIJs4k7zdGjAhURxVUlrKPbFvY
Istanbul Samer Turkish Restaurant,4.6,342,"Next to National Hotel East, E-Zahra St 5",Jerusalem,,IL,http://www.facebook.com/istanbul4u,+972 2-627-5511,Restaurant,https://www.google.com/maps/search/?api=1&query=Istanbul%20Samer%20Turkish%20Restaurant&query_place_id=ChIJARPM05QpAxUR_gmIAPOlWyE
אושי אושי אשקלון,4.4,300,Kadesh Blvd,Ashkelon,,IL,https://oshioshi.co.il/%D7%90%D7%A9%D7%A7%D7%9C%D7%95%D7%9F/,+972 8-670-2080,Asian restaurant,https://www.google.com/maps/search/?api=1&query=%D7%90%D7%95%D7%A9%D7%99%20%D7%90%D7%95%D7%A9%D7%99%20%D7%90%D7%A9%D7%A7%D7%9C%D7%95%D7%9F&query_place_id=ChIJMaOnuqidAhURhvYpHGjU8Kc
המשביע דימונה,4.0,81,David HaMelech St 283,Dimona,,IL,https://hamasbiadimonia.maxshop.co.il/,+972 8-610-9960,Shawarma restaurant,https://www.google.com/maps/search/?api=1&query=%D7%94%D7%9E%D7%A9%D7%91%D7%99%D7%A2%20%D7%93%D7%99%D7%9E%D7%95%D7%A0%D7%94&query_place_id=ChIJj7oK44JHAhURtwsLwcTA9K0
Tampopo,4.6,3744,Derech Ben Gurion 65,Bat Yam,,IL,http://tampopo.co.il/,+972 3-659-4194,Japanese restaurant,https://www.google.com/maps/search/?api=1&query=Tampopo&query_place_id=ChIJWd0vDhizAhUR4Q89I1-nG3k
Cassis Restaurant,4.0,3115,Kidron St 44,Tel Aviv-Yafo,,IL,http://www.cassis.co.il/,+972 3-575-3745,Restaurant,https://www.google.com/maps/search/?api=1&query=Cassis%20Restaurant&query_place_id=ChIJlzaY5TOzAhUR0sWjE5hxO8U
Hai Phong - Chinese Restaurant,4.3,976,HaPeled St 20,Holon,,IL,https://hai-phong.rol.co.il/,+972 3-559-8118,Chinese restaurant,https://www.google.com/maps/search/?api=1&query=Hai%20Phong%20-%20Chinese%20Restaurant&query_place_id=ChIJk4ABO8q0AhURPa7915P3S2w
Namaste,4.3,1923,HaTayelet 20,Ashdod,,IL,https://namaste-ashdod.co.il/,+972 8-856-2437,Indian restaurant,https://www.google.com/maps/search/?api=1&query=Namaste&query_place_id=ChIJgeESVaajAhURqVNxVjshUMg
Petra Restaurant,4.2,6141,Mafkura St 1,Ashdod,,IL,https://www.petrarest.co.il/,+972 8-865-1610,Georgian restaurant,https://www.google.com/maps/search/?api=1&query=Petra%20Restaurant&query_place_id=ChIJ_yBzJK2jAhUR0XAWHg8CDxo
Golden Dragon,4.1,603,Ha'Atsmaut Blvd 67,Bat Yam,,IL,http://drakonhazhav.co.il/,+972 3-506-4965,Thai restaurant,https://www.google.com/maps/search/?api=1&query=Golden%20Dragon&query_place_id=ChIJOUwqQRKzAhURdNxyYjQQCmw
Restaurant da Vinci,4.4,365,Ha-Nasi St 3,Ashkelon,,IL,http://restdavinci.com/,+972 52-667-5759,Restaurant,https://www.google.com/maps/search/?api=1&query=Restaurant%20da%20Vinci&query_place_id=ChIJhbduxUacAhURNy-nD5Uatik
Ha-Nasi 1 Pub,4.5,3030,Ha-Nasi St 1,Ashkelon,,IL,http://hanasi1.co.il/,+972 8-673-0209,Restaurant,https://www.google.com/maps/search/?api=1&query=Ha-Nasi%201%20Pub&query_place_id=ChIJDyRQ0UacAhURt5aRlxenAVY
Ze,4.4,1426,"נסיעה עם Waze אל זה אשדוד : https://waze.com/ul/hsv8suhfyx, Mafkura St 1",Ashdod,,IL,https://zehashdod.wixsite.com/menu,+972 50-284-4004,Restaurant,https://www.google.com/maps/search/?api=1&query=Ze&query_place_id=ChIJ0yYf36yjAhURT7a1M31bXyk
Mai Way Asian restaurant,4.4,1157,Tsfanya St 10,Ashkelon,,IL,https://maiway.co.il/,+972 8-676-6657,Asian restaurant,https://www.google.com/maps/search/?api=1&query=Mai%20Way%20Asian%20restaurant&query_place_id=ChIJ-1KE00CcAhURrejyxeZXVrw
GODA גודה,4.6,425,Martin Buber St 1,Ashdod,,IL,https://tabitisrael.co.il/%D7%94%D7%96%D7%9E%D7%A0%D7%AA-%D7%9E%D7%A7%D7%95%D7%9D/create-reservation?step=search&orgId=65d35461330fa6ec4fe5fd65&type=future_reservation,+972 77-938-6105,Restaurant,https://www.google.com/maps/search/?api=1&query=GODA%20%D7%92%D7%95%D7%93%D7%94&query_place_id=ChIJ-7Q4h6CjAhURjdM_PR_a0-M
Ricotta Restaurant,4.0,2184,Kiryat HaMada St 3,Jerusalem,,IL,https://ricotta.co.il/,+972 2-587-0222,Italian restaurant,https://www.google.com/maps/search/?api=1&query=Ricotta%20Restaurant&query_place_id=ChIJNz-fkx7WAhURtx1VcITpkdg
McDonald's,3.4,1383,פרץ סנטר - אזור תעשיה דרומי,Dimona,,IL,https://www.mcdonalds.co.il/,+972 52-944-0139,Fast food restaurant,https://www.google.com/maps/search/?api=1&query=McDonald's&query_place_id=ChIJtfK_RRRGAhURc2lzs4VDr8A
Etzlenu,5.0,14,Sderot Chen 51,Tel Aviv-Yafo,,IL,http://etzlenu.com/,+972 54-236-0781,Soul food restaurant,https://www.google.com/maps/search/?api=1&query=Etzlenu&query_place_id=ChIJpUGNKIRLHRURlNcWgHlh_38
אנונה ביסטרו,4.5,1395,Yiftakh ha-Gil'adi St 17,Ashkelon,,IL,https://order.anona-bistro.co.il/,+972 8-912-3697,Restaurant,https://www.google.com/maps/search/?api=1&query=%D7%90%D7%A0%D7%95%D7%A0%D7%94%20%D7%91%D7%99%D7%A1%D7%98%D7%A8%D7%95&query_place_id=ChIJFVpoQVGcAhURoy2zbZvfN0M
לינדה,4.3,1346,Abba Ahimeir St 5,Ashkelon,,IL,https://lindarest.co.il/,+972 8-684-2754,Chophouse restaurant,https://www.google.com/maps/search/?api=1&query=%D7%9C%D7%99%D7%A0%D7%93%D7%94&query_place_id=ChIJ-3fpATucAhURFexIvnUUQIE
Meatos,4.1,3073,"מגדל אמות השקעות, Weizmann St 2",Tel Aviv-Yafo,,IL,http://www.meatos.co.il/,+972 3-693-2002,Meat dish restaurant,https://www.google.com/maps/search/?api=1&query=Meatos&query_place_id=ChIJ4ckDaJpLHRURgDNCHMVrs94
"Hummus Abu Dabi, Tel Aviv",4.4,1881,King George St 81,Tel Aviv-Yafo,,IL,https://www.abudubi.com/,+972 3-525-9090,Middle Eastern restaurant,https://www.google.com/maps/search/?api=1&query=Hummus%20Abu%20Dabi%2C%20Tel%20Aviv&query_place_id=ChIJ-Qvb44BLHRURjBD2Nanedbs
הניצחון של חני,4.7,430,Yakhin St 1255,Ashkelon,,IL,http://ontopo.com/he/il/page/27027102?source=google,+972 50-200-5810,Romanian restaurant,https://www.google.com/maps/search/?api=1&query=%D7%94%D7%A0%D7%99%D7%A6%D7%97%D7%95%D7%9F%20%D7%A9%D7%9C%20%D7%97%D7%A0%D7%99&query_place_id=ChIJew74_HqdAhURkF9htABdSAA
Fish Chef Restaurant Taiyo (מסעדת תאיו שף דגים),4.0,4086,Derech Ben Gurion 60,Bat Yam,,IL,https://tayo.co.il/,+972 3-656-5650,Restaurant,https://www.google.com/maps/search/?api=1&query=Fish%20Chef%20Restaurant%20Taiyo%20(%D7%9E%D7%A1%D7%A2%D7%93%D7%AA%20%D7%AA%D7%90%D7%99%D7%95%20%D7%A9%D7%A3%20%D7%93%D7%92%D7%99%D7%9D)&query_place_id=ChIJSbcIvBmzAhUREi2rAIgRRO0
Idi Fish Restaurant,4.3,3063,Ha-Bosem St 6,Ashdod,,IL,http://www.ididagim.co.il/,+972 8-852-4313,Seafood restaurant,https://www.google.com/maps/search/?api=1&query=Idi%20Fish%20Restaurant&query_place_id=ChIJc6iojGejAhURaSb-cX9Gwn4
Alena restaurant,4.2,1056,Nachmani St 23-25,Tel Aviv-Yafo,,IL,https://www.thenorman.co.il/restaurants-and-bar/alena/,+972 3-543-5400,Restaurant,https://www.google.com/maps/search/?api=1&query=Alena%20restaurant&query_place_id=ChIJOxaZmH1LHRURboLnTyBU6M8
Otman Brothers Restaurant,4.3,2089,Herzl St 4,Gedera,,IL,https://israelbusinessguide.com/catalog/gedera/otman_brothers_restaurant/,+972 8-859-2453,Barbecue restaurant,https://www.google.com/maps/search/?api=1&query=Otman%20Brothers%20Restaurant&query_place_id=ChIJtfMizea7AhURHix3ZiSHtXc
imerSion - The First immersive restaurant in Israel,4.5,148,Kaufmann St 13,Tel Aviv-Yafo,,IL,https://imersion.co.il/,+972 52-514-2977,Restaurant,https://www.google.com/maps/search/?api=1&query=imerSion%20-%20The%20First%20immersive%20restaurant%20in%20Israel&query_place_id=ChIJS_JG-U5NHRURt4HQjiCf3mA
Ben-Sira Hummus,4.4,3343,Ben Sira St 3,Jerusalem,,IL,https://israelbusinessguide.com/catalog/ierusalim/ben-sira_hummus/,+972 2-625-3893,Israeli restaurant,https://www.google.com/maps/search/?api=1&query=Ben-Sira%20Hummus&query_place_id=ChIJIyRMQNEpAxURtZJ59FrYWVE
Adom Restaurant,4.3,2764,Hillel St 41,Jerusalem,,IL,https://www.adom.rest/,+972 2-624-6242,Brasserie,https://www.google.com/maps/search/?api=1&query=Adom%20Restaurant&query_place_id=ChIJDRnGvS0oAxURirWSHO6lXjg
מסעדת בלקאאוט - Blackout restaurant,4.4,175,"רציף העלייה השנייה, נמל, חניה קרובה: חניון נמל יפו",Tel Aviv-Yafo,,IL,https://nalagaat.org.il/blackoutrestaurant/,+972 3-633-0808,Restaurant,https://www.google.com/maps/search/?api=1&query=%D7%9E%D7%A1%D7%A2%D7%93%D7%AA%20%D7%91%D7%9C%D7%A7%D7%90%D7%90%D7%95%D7%98%20-%20Blackout%20restaurant&query_place_id=ChIJAXBgocdMHRURJd6Qr07F5_8
Cafe Lyon,4.5,613,HaNamal St 2,Ashkelon,,IL,https://www.facebook.com/cafe.lyon.ashkelon,+972 8-665-3667,Kosher restaurant,https://www.google.com/maps/search/?api=1&query=Cafe%20Lyon&query_place_id=ChIJFwUyi_2dAhURsfBNwEOJ0XY
Yaffa Knafeh,4.6,4394,Olei Zion St 24,Tel Aviv-Yafo,,IL,https://yaffaknafeh.com/,+972 3-970-2051,Restaurant,https://www.google.com/maps/search/?api=1&query=Yaffa%20Knafeh&query_place_id=ChIJUUPifuBNHRURxN-ZeQLbAdQ
Kaful,4.3,306,Nahalat Binyamin St 2,Tel Aviv-Yafo,,IL,https://kaful.co.il/,+972 77-231-8259,Restaurant,https://www.google.com/maps/search/?api=1&query=Kaful&query_place_id=ChIJe6iZY4FMHRUR9wC-Dc01At0
The Culinary Workshop,4.4,1876,Hebron Rd 28,Jerusalem,,IL,http://www.sdnrest.com/,+972 2-567-2265,Restaurant,https://www.google.com/maps/search/?api=1&query=The%20Culinary%20Workshop&query_place_id=ChIJTTLKEC4oAxURJjjH4385I5Q
Gojo Restaurant,4.7,1152,Israel Teller St 32,Rehovot,,IL,https://gojo.co.il/,+972 8-996-4644,Ethiopian restaurant,https://www.google.com/maps/search/?api=1&query=Gojo%20Restaurant&query_place_id=ChIJMduiRAS3AhURdSWx8DsptL4
Akbar,4.3,2745,Nakhman St 2,Tel Aviv-Yafo,,IL,http://akbar.co.il/,+972 54-605-5190,Restaurant,https://www.google.com/maps/search/?api=1&query=Akbar&query_place_id=ChIJf2AoP7lMHRURsEdUt4jz29s
Dallal Restaurant,4.1,3654,Shabazi St 10,Tel Aviv-Yafo,,IL,http://www.dallal.co.il/,+972 3-510-9292,Restaurant,https://www.google.com/maps/search/?api=1&query=Dallal%20Restaurant&query_place_id=ChIJIaam_JlMHRURmoGSrDoKiMQ
Meshek Barzilay,4.4,3915,Ahad Ha'Am St 6,Tel Aviv-Yafo,,IL,http://www.meshekbarzilay.co.il/,+972 3-516-6329,Vegan restaurant,https://www.google.com/maps/search/?api=1&query=Meshek%20Barzilay&query_place_id=ChIJVV3QfJtMHRURPY_eDNKOXIY
Теnat,4.6,712,Chlenov St 27,Tel Aviv-Yafo,,IL,https://m.facebook.com/tenatvegan/,+972 3-522-2829,Ethiopian restaurant,https://www.google.com/maps/search/?api=1&query=%D0%A2%D0%B5nat&query_place_id=ChIJSYOY6GFLHRUR-p_vhAwGnog
ראיסה בשוק הפשפשים,4.3,3024,"שוק הפשפשים, Rabbi Yohanan St 10",Tel Aviv-Yafo,,IL,http://ontopo.co.il/raisa,+972 3-620-2262,Cocktail bar,https://www.google.com/maps/search/?api=1&query=%D7%A8%D7%90%D7%99%D7%A1%D7%94%20%D7%91%D7%A9%D7%95%D7%A7%20%D7%94%D7%A4%D7%A9%D7%A4%D7%A9%D7%99%D7%9D&query_place_id=ChIJ96GWDblMHRURuw-vqSLbh34
Milgo Milbar,4.3,1804,Rothschild Blvd 142,Tel Aviv-Yafo,,IL,https://milgomilbar.co.il/,+972 50-798-1318,Restaurant,https://www.google.com/maps/search/?api=1&query=Milgo%20Milbar&query_place_id=ChIJoSYW_oFLHRUROTeWytMUISo
Kalamata,4.3,3109,Kikar Kdumim 10,Tel Aviv-Yafo,,IL,http://www.kalamata.co.il/,+972 3-681-9998,Greek restaurant,https://www.google.com/maps/search/?api=1&query=Kalamata&query_place_id=ChIJTUx-XcdMHRUR5ceBkkilzW8
HIBA Restaurant,4.6,882,Menakhem Begin Rd 144,Tel Aviv-Yafo,,IL,https://www.hibatlv.co.il/,+972 52-385-2387,Restaurant,https://www.google.com/maps/search/?api=1&query=HIBA%20Restaurant&query_place_id=ChIJ0_0kufVLHRURbEnQPFPvfXI
Shmuel,4.6,962,"Carmel Market, Rabbi Meir St 42",Tel Aviv-Yafo,,IL,https://www.facebook.com/shmuel.carmelmarket,+972 3-631-1650,Mediterranean restaurant,https://www.google.com/maps/search/?api=1&query=Shmuel&query_place_id=ChIJi6xr84NMHRURL99I_lU0Cdc
Pastel restaurant מסעדת פאסטל,4.4,3129,שד׳ שאול המלך 27,Tel Aviv-Yafo,,IL,http://www.pastel-tlv.com/,+972 3-644-7441,Restaurant,https://www.google.com/maps/search/?api=1&query=Pastel%20restaurant%20%D7%9E%D7%A1%D7%A2%D7%93%D7%AA%20%D7%A4%D7%90%D7%A1%D7%98%D7%9C&query_place_id=ChIJ6644AptLHRURlCPeKB29rbE
מינה טומיי תל אביב,4.3,5276,HaArba'a St 17,Tel Aviv-Yafo,,IL,https://www.minna-tomei.co.il/,+972 3-633-8183,Asian restaurant,https://www.google.com/maps/search/?api=1&query=%D7%9E%D7%99%D7%A0%D7%94%20%D7%98%D7%95%D7%9E%D7%99%D7%99%20%D7%AA%D7%9C%20%D7%90%D7%91%D7%99%D7%91&query_place_id=ChIJTTswQp1LHRURgkOXrxroDw0
פבלה pavella,4.2,2272,Martin Buber St 1,Ashdod,,IL,https://pavella.co.il/,+972 8-852-6583,Restaurant,https://www.google.com/maps/search/?api=1&query=%D7%A4%D7%91%D7%9C%D7%94%20pavella&query_place_id=ChIJ-7Q4h6CjAhURib4atqm42-Q
מקום לשבט,4.4,61,,Midreshet Ben-Gurion,,IL,https://lashevet.co.il/,+972 54-424-2385,Restaurant,https://www.google.com/maps/search/?api=1&query=%D7%9E%D7%A7%D7%95%D7%9D%20%D7%9C%D7%A9%D7%91%D7%98&query_place_id=ChIJW6y0p5IZAhURNx1x04cUmIo
פיצה טראק PizzaTruck,,0,,Lotan,,IL,https://www.travelhotels.co.il/,+972 50-431-0205,Pizza restaurant,https://www.google.com/maps/search/?api=1&query=%D7%A4%D7%99%D7%A6%D7%94%20%D7%98%D7%A8%D7%90%D7%A7%20PizzaTruck&query_place_id=ChIJP1bivmpTABURN9tNCm_nCcs
George & John - Relais & Châteaux,4.4,1377,Auerbach St 6,Tel Aviv-Yafo,,IL,http://gandj.co.il/,+972 3-726-9309,Restaurant,https://www.google.com/maps/search/?api=1&query=George%20%26%20John%20-%20Relais%20%26%20Ch%C3%A2teaux&query_place_id=ChIJl5CMejNNHRURXa-pmIKHL9c
שנטי טראק,5.0,7,רמת הנגב שלווה,במדבר,,IL,http://www.shanti.org.il/shantitruck,+972 3-954-9300,Fast food restaurant,https://www.google.com/maps/search/?api=1&query=%D7%A9%D7%A0%D7%98%D7%99%20%D7%98%D7%A8%D7%90%D7%A7&query_place_id=ChIJ9R_wP_QdAhUReK2chLlNYtc
Notre Dame Rooftop Restaurant,4.4,875,"Notre Dame Center of Jerusalem, HaTsanhanim St 3, 4th Floor",Jerusalem,,IL,https://www.notredamecenter.org/cheeseandwine,+972 2-627-9111,Restaurant,https://www.google.com/maps/search/?api=1&query=Notre%20Dame%20Rooftop%20Restaurant&query_place_id=ChIJ4-bf2M8pAxURc8fsbzZZKfg
Dabuda סושי אשקלון,4.3,339,חוף דלילה אשקלון,Ashkelon,,IL,https://www.dabuda29.com/,+972 8-850-7223,Sushi restaurant,https://www.google.com/maps/search/?api=1&query=Dabuda%20%D7%A1%D7%95%D7%A9%D7%99%20%D7%90%D7%A9%D7%A7%D7%9C%D7%95%D7%9F&query_place_id=ChIJLb7N4SqdAhURYpOj2cgnbHw
פיצה טרסה,5.0,7,"הר הנגב, חוות אורליה",,,IL,https://www.instagram.com/invites/contact/?i=10ivoghvxjcsb&utm_content=q8294e1,+972 58-477-1528,Pizza restaurant,https://www.google.com/maps/search/?api=1&query=%D7%A4%D7%99%D7%A6%D7%94%20%D7%98%D7%A8%D7%A1%D7%94&query_place_id=ChIJ62ZRuS4dAhURklEakH24e88
Amna's olive farm,5.0,1,Muaweya Ben Aby Sofian St,Kafr Qara,,IL,https://www.facebook.com/102688642209405/,+972 52-803-0626,Western restaurant,https://www.google.com/maps/search/?api=1&query=Amna's%20olive%20farm&query_place_id=ChIJRULgUpUHHRUR5I_FdvC9C-0
Bahadunas Hummus,4.4,635,Ha-Amal St 2,Ra'anana,,IL,http://www.bahadunes.co.il/,+972 9-744-2029,Israeli restaurant,https://www.google.com/maps/search/?api=1&query=Bahadunas%20Hummus&query_place_id=ChIJpa4HDGE4HRURqpPqnFwkz6A
Ouzeria,4.6,2909,Matalon St 44,Tel Aviv-Yafo,,IL,http://www.ouzeria.co.il/,+972 3-533-0899,Mediterranean restaurant,https://www.google.com/maps/search/?api=1&query=Ouzeria&query_place_id=ChIJ9XREdZ5MHRURcSnyNb1twI0
ג'פניקה קוויק רעננה כשר,3.8,1395,Zarhin St 1ב,Ra'anana,,IL,https://japanika.net/branches,+972 3-723-6100,Asian restaurant,https://www.google.com/maps/search/?api=1&query=%D7%92'%D7%A4%D7%A0%D7%99%D7%A7%D7%94%20%D7%A7%D7%95%D7%95%D7%99%D7%A7%20%D7%A8%D7%A2%D7%A0%D7%A0%D7%94%20%D7%9B%D7%A9%D7%A8&query_place_id=ChIJZd4yOBM4HRURYk_fMOdr7OM
Shabtai Hayafe,4.3,1915,HaTsorfim St 38,Tel Aviv-Yafo,,IL,https://ontopo.com/he/il/page/shabtaihayafe,+972 3-683-2250,Fish restaurant,https://www.google.com/maps/search/?api=1&query=Shabtai%20Hayafe&query_place_id=ChIJP4Su075MHRURnOUtivHvO08
Yamatoya Bistro Bar,4.2,1310,Bnei Brit St 6,Hod Hasharon,,IL,http://www.yamatoya.co.il/,+972 9-740-7554,Authentic Japanese restaurant,https://www.google.com/maps/search/?api=1&query=Yamatoya%20Bistro%20Bar&query_place_id=ChIJjzkfiIk3HRUR-Ocw3940cGs
Daniel Restaurant,4.1,237,ערער 3,Pardes Hanna-Karkur,,IL,https://www.facebook.com/profile.php?id=61551053911448,+972 1-700-501-224,Restaurant,https://www.google.com/maps/search/?api=1&query=Daniel%20Restaurant&query_place_id=ChIJ7TnnK_4PHRURNkFG6b2tCuQ
Café Noir,4.4,4817,Ahad Ha'Am St 43,Tel Aviv-Yafo,,IL,https://www.cafenoir.co.il/,+972 3-566-3018,Restaurant,https://www.google.com/maps/search/?api=1&query=Caf%C3%A9%20Noir&query_place_id=ChIJ4Q4zoX1LHRURG4iDnJDgQlU
Herbert Samuel Jerusalem Hotel Rooftop Restaurant,3.6,20,Shamai St 25,Jerusalem,,IL,http://www.herbertsamuel.com/en/herbert-samuel-jerusalem,+972 2-560-0600,Kosher restaurant,https://www.google.com/maps/search/?api=1&query=Herbert%20Samuel%20Jerusalem%20Hotel%20Rooftop%20Restaurant&query_place_id=ChIJk2lW_IQpAxURCQ7Je43d0f0
Tofu An,4.4,1146,Derech HaAtsma'ut 74,Binyamina-Giv'at Ada,,IL,https://www.facebook.com/TOFUAN/?fref=ts,+972 4-844-4140,Authentic Japanese restaurant,https://www.google.com/maps/search/?api=1&query=Tofu%20An&query_place_id=ChIJC_slXREMHRURyHxvkPulqp0
Benedict,4.0,3284,"מתחם G, Weizmann St 207",Kefar Sava,,IL,https://www.benedict.co.il/,+972 3-686-8657,Restaurant,https://www.google.com/maps/search/?api=1&query=Benedict&query_place_id=ChIJtXjmlL05HRUR4y4itZJut9Y
Benny's Nature,4.6,277,Nevatim St 28,Pardes Hanna-Karkur,,IL,https://www.bennys-nature.com/,+972 52-612-4683,Vegan restaurant,https://www.google.com/maps/search/?api=1&query=Benny's%20Nature&query_place_id=ChIJYVA9UPIiHBURMXVW1u_7L8o
Ratatui Restaurant,4.2,4684,Ha-Zayit St 90,Emunim,,IL,https://ontopo.co.il/ratatuiemunim/,+972 8-866-4400,Kosher restaurant,https://www.google.com/maps/search/?api=1&query=Ratatui%20Restaurant&query_place_id=ChIJ0bTjzdOiAhURA0xw3FGDMHw
קסרוטי אירוח ביתי איטלקי בטוויסט מדברי (בתיאום מראש),4.8,24,,Samar,,IL,https://www.facebook.com/casarottisamar/,+972 52-456-2357,Italian restaurant,https://www.google.com/maps/search/?api=1&query=%D7%A7%D7%A1%D7%A8%D7%95%D7%98%D7%99%20%D7%90%D7%99%D7%A8%D7%95%D7%97%20%D7%91%D7%99%D7%AA%D7%99%20%D7%90%D7%99%D7%98%D7%9C%D7%A7%D7%99%20%D7%91%D7%98%D7%95%D7%95%D7%99%D7%A1%D7%98%20%D7%9E%D7%93%D7%91%D7%A8%D7%99%20(%D7%91%D7%AA%D7%99%D7%90%D7%95%D7%9D%20%D7%9E%D7%A8%D7%90%D7%A9)&query_place_id=ChIJS-IENNtFABURBXlfxdodcok
Prego Pizza,3.9,268,Rothschild St 43,Kefar Sava,,IL,https://prego.co.il/kfarsaba/,+972 9-768-1234,Pizza restaurant,https://www.google.com/maps/search/?api=1&query=Prego%20Pizza&query_place_id=ChIJlQaolLQ5HRURbRVSoD1kw54
Almog's Gallery,4.3,2574,HaGefen St 3,Neve Yamin,,IL,https://almogsgallery.com/,+972 77-883-8890,Cafe,https://www.google.com/maps/search/?api=1&query=Almog's%20Gallery&query_place_id=ChIJ6W7IRpc5HRURkw37SfSMO1w
מסעדת אלהנא Elhana Restaurant مطعم الهنا חביב עמאש,4.3,76,חוף הים,Jisr az-Zarqa,,IL,http://ww.a.habib.com/,+972 52-222-5340,Restaurant,https://www.google.com/maps/search/?api=1&query=%D7%9E%D7%A1%D7%A2%D7%93%D7%AA%20%D7%90%D7%9C%D7%94%D7%A0%D7%90%20Elhana%20Restaurant%20%D9%85%D8%B7%D8%B9%D9%85%20%D8%A7%D9%84%D9%87%D9%86%D8%A7%20%D7%97%D7%91%D7%99%D7%91%20%D7%A2%D7%9E%D7%90%D7%A9&query_place_id=ChIJiRJDnZ4NHRURnfESoST2GJ0
Greco,4.0,520,"כיכר המושבה, Sokolov St 46",Hod Hasharon,,IL,https://www.greco.co.il/restaurants/GrecoRestaurrantHodHasharon,+972 77-772-9047,Greek restaurant,https://www.google.com/maps/search/?api=1&query=Greco&query_place_id=ChIJCfKluQA5HRURONo8VSRLqgI
Tata,4.0,1104,"מתחם דור אלון, כביש 650",Pardes Hanna-Karkur,,IL,https://www.facebook.com/TATABISTROCHEF/,+972 4-637-6401,Family restaurant,https://www.google.com/maps/search/?api=1&query=Tata&query_place_id=ChIJ1VUiNxUOHRUR_18PtST2oio
ملحمة الشيف اياد - كفر قاسم אטליז השף איאד כפר קאסם,4.4,265,"Abd El kareem, Qasim Street",Kfar Qasim,,IL,https://chefeyad.co/,+972 54-773-0677,Butcher shop,https://www.google.com/maps/search/?api=1&query=%D9%85%D9%84%D8%AD%D9%85%D8%A9%20%D8%A7%D9%84%D8%B4%D9%8A%D9%81%20%D8%A7%D9%8A%D8%A7%D8%AF%20-%20%D9%83%D9%81%D8%B1%20%D9%82%D8%A7%D8%B3%D9%85%20%D7%90%D7%98%D7%9C%D7%99%D7%96%20%D7%94%D7%A9%D7%A3%20%D7%90%D7%99%D7%90%D7%93%20%D7%9B%D7%A4%D7%A8%20%D7%A7%D7%90%D7%A1%D7%9D&query_place_id=ChIJof2GHtgxHRURu5mRxcotrIY
Taj,4.6,575,Rothschild St 2,Or Akiva,,IL,https://www.facebook.com/tajrestaurant.orakiva,+972 58-538-8440,Indian restaurant,https://www.google.com/maps/search/?api=1&query=Taj&query_place_id=ChIJmYJrQk0MHRURRakTh45WIbY
Kan Kai - Sushi Wok Bar,4.1,599,Moshe Dayan St 2,Rosh Haayin,,IL,http://kankai.co.il/,+972 3-902-1833,Sushi restaurant,https://www.google.com/maps/search/?api=1&query=Kan%20Kai%20-%20Sushi%20Wok%20Bar&query_place_id=ChIJTxgD9Mc2HRURBwO5RA4ZxZ8
Ella Patisserie,4.2,1555,א.ת. עמק חפר דרך נחל אלכסנדר 5,,,IL,https://www.ella-patisserie.co.il/,+972 4-654-6155,Patisserie,https://www.google.com/maps/search/?api=1&query=Ella%20Patisserie&query_place_id=ChIJC8yrVnoTHRURZCqH_Qpcowo
DINER,4.5,1750,Ha-Rakun St 2,Hod Hasharon,,IL,http://www.dinerrest.co.il/,+972 3-753-9088,Restaurant,https://www.google.com/maps/search/?api=1&query=DINER&query_place_id=ChIJAwn5sto3HRURVfXepBCMFk8
Pizza Pomedro,4.2,419,HaNassi St 66,Hadera,,IL,https://israelbusinessguide.com/catalog/hadera/pizza_pomedro/,+972 4-632-6432,Pizza restaurant,https://www.google.com/maps/search/?api=1&query=Pizza%20Pomedro&query_place_id=ChIJh7A_u0YSHRURN4gcqRlQWSs
Pasta Loco,4.5,910,Hillel Yafe St 20,Hadera,,IL,http://www.pastaloco.com/,+972 4-693-6305,Italian restaurant,https://www.google.com/maps/search/?api=1&query=Pasta%20Loco&query_place_id=ChIJsTj7B1ASHRURgwoArCxAwhQ
Burger Legends,4.1,220,HaGiborim St 63,Hadera,,IL,https://www.burgerlegends.co.il/,+972 52-612-6229,Hamburger restaurant,https://www.google.com/maps/search/?api=1&query=Burger%20Legends&query_place_id=ChIJ19KS0eUTHRURauZTecsvAgc
Izakaya Sushi Market,4.7,1336,HaYarkonim St 43,Petah Tikva,,IL,http://sushimarket.co.il/,+972 3-605-7423,Izakaya restaurant,https://www.google.com/maps/search/?api=1&query=Izakaya%20Sushi%20Market&query_place_id=ChIJFZqjGls2HRUR2rjPG1UnzXo
Cramim Restaurant,4.3,4404,Shderat ha-Ikarim 70,Sgula,,IL,http://www.cramimrest.co.il/,+972 8-850-5859,Restaurant,https://www.google.com/maps/search/?api=1&query=Cramim%20Restaurant&query_place_id=ChIJ1cpI6S6UAhURzXzIBmqa4Zs
Play hotel restaurant,4.4,34,Menakhem Begin Rd 144,Tel Aviv-Yafo,,IL,https://www.playhotels.com/play-midtown-tel-aviv-culinary,,Western restaurant,https://www.google.com/maps/search/?api=1&query=Play%20hotel%20restaurant&query_place_id=ChIJdw9PY_ZLHRURz_eMc2Xxv0s
Abu Za'id the Bedouin Restaurant,4.1,661,תחנת דלק פז,Hagor,,IL,https://restaurantguru.com/Abu-Zaid-the-Bedouin-Restaurant-Israel,+972 3-903-2475,Restaurant,https://www.google.com/maps/search/?api=1&query=Abu%20Za'id%20the%20Bedouin%20Restaurant&query_place_id=ChIJDxW1cgE6HRUR4eXSAzrYoUE
Nagisa,3.9,783,"אזור התעשייה, HaTa'as St 14",Kefar Sava,,IL,https://nagisasushi.co.il/kfar-saba/,+972 77-700-0333,Sushi restaurant,https://www.google.com/maps/search/?api=1&query=Nagisa&query_place_id=ChIJ_4X6jR74-hQRrcHMPqtULM4
ג׳פניקה קיסריה | JAPANIKA CAESAREA,4.1,3893,"אזור תעשייה צפוני, Khalamish St 17",Caesarea,,IL,https://www.japanika.net/branch/%D7%A7%D7%99%D7%A1%D7%A8%D7%99%D7%94/,+972 3-723-6100,Asian restaurant,https://www.google.com/maps/search/?api=1&query=%D7%92%D7%B3%D7%A4%D7%A0%D7%99%D7%A7%D7%94%20%D7%A7%D7%99%D7%A1%D7%A8%D7%99%D7%94%20%7C%20JAPANIKA%20CAESAREA&query_place_id=ChIJ3aPDStgNHRUR8kI2tCCH6KM
באבא- בשר עם עופי,4.5,19,,Kmehin,,IL,http://www.baba-rest.co.il/,+972 50-472-1914,Restaurant,https://www.google.com/maps/search/?api=1&query=%D7%91%D7%90%D7%91%D7%90-%20%D7%91%D7%A9%D7%A8%20%D7%A2%D7%9D%20%D7%A2%D7%95%D7%A4%D7%99&query_place_id=ChIJr0W9HkX__RQRR67_-Hp77qg
Café Feinberg,4.2,1769,Jabotinsky St 34,Hadera,,IL,https://cafefainberg.co.il/,+972 4-634-4490,Coffee shop,https://www.google.com/maps/search/?api=1&query=Caf%C3%A9%20Feinberg&query_place_id=ChIJCwP63U4SHRUREXvrF5gniCw
Bravo Restaurant,4.1,193,Combe St 10,Hadera,,IL,https://www.getrestaur.co.il/%D7%9E%D7%A1%D7%A2%D7%93%D7%AA%20-%20%D7%91%D7%A8%D7%90%D7%91%D7%95%20-%202769,+972 4-622-0158,Restaurant,https://www.google.com/maps/search/?api=1&query=Bravo%20Restaurant&query_place_id=ChIJNa5pYV4SHRUR-8xBfcWUzUQ
פוקי ואן - Poke Van,4.7,298,Khalamish St 7,Caesarea,,IL,https://caesarea.pokevan.co.il/,+972 4-888-0040,Asian restaurant,https://www.google.com/maps/search/?api=1&query=%D7%A4%D7%95%D7%A7%D7%99%20%D7%95%D7%90%D7%9F%20-%20Poke%20Van&query_place_id=ChIJc6V2B-INHRURTtuxeOL4tvA
Katy's,4.6,396,Ha-Soreg St 2,Jerusalem,,IL,https://www.katys-restaurant.com/,+972 2-623-1793,Restaurant,https://www.google.com/maps/search/?api=1&query=Katy's&query_place_id=ChIJ8zqTL9EpAxURoAH_wQQPDdo
Patio Cafe & Restaurant,4.3,396,Ha-Nasi St 3,Ashkelon,,IL,http://patio-cafe.co.il/,+972 8-614-4808,Restaurant,https://www.google.com/maps/search/?api=1&query=Patio%20Cafe%20%26%20Restaurant&query_place_id=ChIJMSHq2jedAhURmUL5WyjGJ4c
Salta,4.4,1314,Rambam St 10,Ra'anana,,IL,https://www.saltaa.com/?utm_source=local&utm_medium=organic&utm_campaign=gmb,+972 54-330-6736,Kosher restaurant,https://www.google.com/maps/search/?api=1&query=Salta&query_place_id=ChIJ5TpFFhM4HRURb5TdFhrWFnc
Turkiz,4.4,2659,Derech Hefer 19,Beit Yitzhak-Sha'ar Hefer,,IL,https://www.turkiz.net/,+972 9-884-5560,Furniture store,https://www.google.com/maps/search/?api=1&query=Turkiz&query_place_id=ChIJwTqC5xAVHRURFSeIRiVI004
Hamaashena המעשנה,4.3,1870,Netiv HaZayit 88,Yanuv,,IL,http://www.hamaashena.co.il/?utm_source=gmb,+972 9-894-5118,Restaurant,https://www.google.com/maps/search/?api=1&query=Hamaashena%20%D7%94%D7%9E%D7%A2%D7%A9%D7%A0%D7%94&query_place_id=ChIJ_WF3wgcWHRURNJ_60OUes3s
תפארת הפלאפל והשווארמה,4.3,1614,Weizmann St 147,Kefar Sava,,IL,https://www.mako.co.il/food-restaurants/street-food-critics/Article-7faba299a10b961006.htm,+972 9-767-3083,Falafel restaurant,https://www.google.com/maps/search/?api=1&query=%D7%AA%D7%A4%D7%90%D7%A8%D7%AA%20%D7%94%D7%A4%D7%9C%D7%90%D7%A4%D7%9C%20%D7%95%D7%94%D7%A9%D7%95%D7%95%D7%90%D7%A8%D7%9E%D7%94&query_place_id=ChIJ757ISrE5HRURAZc0648KHmE
רותה ולולו,3.7,3,רבי דוד מלול 113,Yeruham,,IL,http://www.rutavelulu.com/,+972 58-441-0188,Cafe,https://www.google.com/maps/search/?api=1&query=%D7%A8%D7%95%D7%AA%D7%94%20%D7%95%D7%9C%D7%95%D7%9C%D7%95&query_place_id=ChIJFdHLeKo_AhUR6bD9tJXrMvY
Limani Bistro,4.1,1649,נמל,Caesarea,,IL,https://limanibistro.co.il/,+972 4-610-0022,Mediterranean restaurant,https://www.google.com/maps/search/?api=1&query=Limani%20Bistro&query_place_id=ChIJ_boQOvgMHRURHGJuU6Nl3Mk
Ben Hemo Restaurant,4.1,1702,"מרכז מסחרי, HaRav Kuk St 1",Or Akiva,,IL,https://www.zooz360.co.il/main.asp?card=1466,,Meat dish restaurant,https://www.google.com/maps/search/?api=1&query=Ben%20Hemo%20Restaurant&query_place_id=ChIJSbMtRE4MHRUR3KJgQFKZR1E
קייטרינג רוניתא | קייטרינג בשרי וחלבי,4.6,14,דרך עין מור 5,Midreshet Ben-Gurion,,IL,https://www.ronita-negev.info/,+972 54-473-9935,Caterer,https://www.google.com/maps/search/?api=1&query=%D7%A7%D7%99%D7%99%D7%98%D7%A8%D7%99%D7%A0%D7%92%20%D7%A8%D7%95%D7%A0%D7%99%D7%AA%D7%90%20%7C%20%D7%A7%D7%99%D7%99%D7%98%D7%A8%D7%99%D7%A0%D7%92%20%D7%91%D7%A9%D7%A8%D7%99%20%D7%95%D7%97%D7%9C%D7%91%D7%99&query_place_id=ChIJ44L6ou4ZAhURF-YknCvbcOg
Café LYON,4.7,2730,HaNahshol St 22,Yavne,,IL,http://cafelyon-yavne.click2eat.co.il/,+972 8-667-7105,Cafe,https://www.google.com/maps/search/?api=1&query=Caf%C3%A9%20LYON&query_place_id=ChIJddWqFl26AhURJShBdUnSG8k
Kofinas,4.4,4351,Ha-Shibolim St 5,Tzur Moshe,,IL,https://www.kofinas.co.il/,+972 9-772-2672,Restaurant,https://www.google.com/maps/search/?api=1&query=Kofinas&query_place_id=ChIJgQdm5zE-HRURt3QHD6ZGYOE
Hanamaru,4.5,4901,Rahvat HaBanim,Beit Yitzhak-Sha'ar Hefer,,IL,http://hanamaru.rest.co.il/,+972 9-882-8493,Restaurant,https://www.google.com/maps/search/?api=1&query=Hanamaru&query_place_id=ChIJLcQy1mgVHRUR7eYqVhkvwkw
Vivino - כפר סבא,4.6,1397,אושילנד,Kefar Sava,,IL,https://www.vivino.co.il/KfarSaba,+972 9-833-3235,Italian restaurant,https://www.google.com/maps/search/?api=1&query=Vivino%20-%20%D7%9B%D7%A4%D7%A8%20%D7%A1%D7%91%D7%90&query_place_id=ChIJo5RMLCo5HRURgrUGHjMXHOw
Piano Piano,4.3,3719,"G, Weizmann St 301",Kefar Sava,,IL,http://pianopiano.co.il/,+972 9-768-8778,Italian restaurant,https://www.google.com/maps/search/?api=1&query=Piano%20Piano&query_place_id=ChIJO9QZBrQ5HRURBqt2-Z3W1u8
האוהל של סלימה,4.4,60,"רכ'מה כפר רכ'מה, ליד",Yeruham,,IL,https://www.facebook.com/%D7%90%D7%99%D7%A8%D7%95%D7%97-%D7%91%D7%93%D7%95%D7%90%D7%99-%D7%91%D7%99%D7%A8%D7%95%D7%97%D7%9D-289903377836836/,+972 52-331-8745,Restaurant,https://www.google.com/maps/search/?api=1&query=%D7%94%D7%90%D7%95%D7%94%D7%9C%20%D7%A9%D7%9C%20%D7%A1%D7%9C%D7%99%D7%9E%D7%94&query_place_id=ChIJRSgovM84AhUReVBvyUrf3tc
ג'חנון במדבר,5.0,1,17,Sde Boker,,IL,https://easy.co.il/page/10127642?utm_campaign=bizpage_share&utm_source=native_share&utm_medium=direct_link,+972 52-464-3234,Country food restaurant,https://www.google.com/maps/search/?api=1&query=%D7%92'%D7%97%D7%A0%D7%95%D7%9F%20%D7%91%D7%9E%D7%93%D7%91%D7%A8&query_place_id=ChIJwZmE6bUZAhURBTEesg1AozI
אושי אושי דימונה,4.0,132,דימרי סנטר,Dimona,,IL,https://oshioshi.co.il/%D7%93%D7%99%D7%9E%D7%95%D7%A0%D7%94/,+972 8-651-5050,Sushi restaurant,https://www.google.com/maps/search/?api=1&query=%D7%90%D7%95%D7%A9%D7%99%20%D7%90%D7%95%D7%A9%D7%99%20%D7%93%D7%99%D7%9E%D7%95%D7%A0%D7%94&query_place_id=ChIJrT3y-UhFAhURGszWOJN7tb4
Restaurant Bunny,4.4,439,Shechterman Tzvi St 17-21,Netanya,,IL,https://www.rest.co.il/rest/21471890/,+972 9-861-8206,Restaurant,https://www.google.com/maps/search/?api=1&query=Restaurant%20Bunny&query_place_id=ChIJz4JholgVHRURUs_xDuVCOyk
המקסיקני,4.1,110,Sderot HaNassi 1,Dimona,,IL,https://www.mexicani.co.il/,+972 1-700-505-033,Mexican restaurant,https://www.google.com/maps/search/?api=1&query=%D7%94%D7%9E%D7%A7%D7%A1%D7%99%D7%A7%D7%A0%D7%99&query_place_id=ChIJA2FKSKFHAhURKWBJDPcAEUw
Rong'an Thai restaurant in Ashdod,4.4,2058,Max Nordau St 24,Ashdod,,IL,https://he-il.facebook.com/%D7%A8%D7%95%D7%A0%D7%92%D7%90%D7%9F-%D7%9E%D7%90%D7%9B%D7%9C%D7%99%D7%9D-%D7%AA%D7%90%D7%99%D7%9C%D7%A0%D7%93%D7%99%D7%9D-%D7%90%D7%95%D7%AA%D7%A0%D7%98%D7%99%D7%9D-%D7%94%D7%93%D7%A3-%D7%94%D7%97%D7%93%D7%A9-1386587721561814/,+972 54-811-1585,Thai restaurant,https://www.google.com/maps/search/?api=1&query=Rong'an%20Thai%20restaurant%20in%20Ashdod&query_place_id=ChIJG_suQOGiAhURKrissiYr-Vk
The Crusaders Restaurant,4.2,2192,הנמל העתיק קיסריה,Caesarea,,IL,https://hazalbanim.co.il/,+972 4-636-1679,Kosher restaurant,https://www.google.com/maps/search/?api=1&query=The%20Crusaders%20Restaurant&query_place_id=ChIJ_boQOvgMHRURpn_NuDeLh6E
סומבררו דימונה,4.1,468,"מ""ד המעפילים 24-28",Dimona,,IL,https://israelbusinessguide.com/catalog/dimona/sombrero_dimona___/,+972 8-655-1135,Fast food restaurant,https://www.google.com/maps/search/?api=1&query=%D7%A1%D7%95%D7%9E%D7%91%D7%A8%D7%A8%D7%95%20%D7%93%D7%99%D7%9E%D7%95%D7%A0%D7%94&query_place_id=ChIJr-Yu5gNGAhURilifaEjqgUg
Pizza Kaparuchka,4.7,1834,Akhva St 19,Arad,,IL,http://kaparuchka.com/,+972 8-860-6615,Restaurant,https://www.google.com/maps/search/?api=1&query=Pizza%20Kaparuchka&query_place_id=ChIJ9UfU_gMAAxURk89wMtxUEuY
מינה טומיי עין שמר,4.4,2105,אלונית,Ein Shemer,,IL,http://www.minna-tomei.co.il/,+972 4-607-2222,Asian restaurant,https://www.google.com/maps/search/?api=1&query=%D7%9E%D7%99%D7%A0%D7%94%20%D7%98%D7%95%D7%9E%D7%99%D7%99%20%D7%A2%D7%99%D7%9F%20%D7%A9%D7%9E%D7%A8&query_place_id=ChIJEYZJf34PHRURgVgK5t0Y95U
שף זאבי,5.0,3,אלה,Midreshet Ben-Gurion,,IL,https://zevi-arch.com/,+972 52-297-5534,Restaurant,https://www.google.com/maps/search/?api=1&query=%D7%A9%D7%A3%20%D7%96%D7%90%D7%91%D7%99&query_place_id=ChIJqbk6B8AZAhURe_E75EPf2lg
סנט ג'ורג' Saint George,4.4,1860,Louis Pasteur St 5,Tel Aviv-Yafo,,IL,http://www.saint-george.co.il/,+972 72-394-1088,Restaurant,https://www.google.com/maps/search/?api=1&query=%D7%A1%D7%A0%D7%98%20%D7%92'%D7%95%D7%A8%D7%92'%20Saint%20George&query_place_id=ChIJY1wEgcdMHRUR16OxQj4kJGE
ג'חנון בקדש ברנע,4.7,6,48,Nitzanei Sinai,,IL,https://www.instagram.com/sharajahnon/,+972 50-712-1121,Restaurant,https://www.google.com/maps/search/?api=1&query=%D7%92'%D7%97%D7%A0%D7%95%D7%9F%20%D7%91%D7%A7%D7%93%D7%A9%20%D7%91%D7%A8%D7%A0%D7%A2&query_place_id=ChIJA8-g5Sr9_RQRf1EzOsCRCWM
Roberta Vinci,4.5,3584,Ahuza St 43,Pardes Hanna-Karkur,,IL,http://www.robertavinci.co.il/,+972 4-603-7377,Restaurant,https://www.google.com/maps/search/?api=1&query=Roberta%20Vinci&query_place_id=ChIJl5jWgE0OHRURHoDyfadDed8
בית הפול והשווארמה - דימונה תחנה מרכזית | חומוס | פלאפל | סביח | שניצל | שווארמה | משלוחים,4.4,509,Sderot Golda Me'ir,Dimona,,IL,https://bet-aful.co.il/,+972 8-655-0794,Restaurant,https://www.google.com/maps/search/?api=1&query=%D7%91%D7%99%D7%AA%20%D7%94%D7%A4%D7%95%D7%9C%20%D7%95%D7%94%D7%A9%D7%95%D7%95%D7%90%D7%A8%D7%9E%D7%94%20-%20%D7%93%D7%99%D7%9E%D7%95%D7%A0%D7%94%20%D7%AA%D7%97%D7%A0%D7%94%20%D7%9E%D7%A8%D7%9B%D7%96%D7%99%D7%AA%20%7C%20%D7%97%D7%95%D7%9E%D7%95%D7%A1%20%7C%20%D7%A4%D7%9C%D7%90%D7%A4%D7%9C%20%7C%20%D7%A1%D7%91%D7%99%D7%97%20%7C%20%D7%A9%D7%A0%D7%99%D7%A6%D7%9C%20%7C%20%D7%A9%D7%95%D7%95%D7%90%D7%A8%D7%9E%D7%94%20%7C%20%D7%9E%D7%A9%D7%9C%D7%95%D7%97%D7%99%D7%9D&query_place_id=ChIJlXgiogZGAhURN39viCkTuJA
Mifgash Gil,4.7,240,Yerushalayim ha-Bira St 3,Beit She'an,,IL,https://m.facebook.com/pages/category/Restaurant/%D7%9E%D7%A4%D7%92%D7%A9-%D7%92%D7%99%D7%9C-113058029390712/,+972 77-502-4030,Restaurant,https://www.google.com/maps/search/?api=1&query=Mifgash%20Gil&query_place_id=ChIJG6t3fMBeHBURR0Wb-6VdFj8
Caesar,4.6,200,,Baqa al-Gharbiyye,,IL,https://caesar-rest.co.il/,+972 50-225-3257,Restaurant,https://www.google.com/maps/search/?api=1&query=Caesar&query_place_id=ChIJDUa8z-YPHRUR9jJ2TYqBKvc
Herb Farm Restaurant,4.2,2689,"חוות התבלינים בגלבוע, כביש 667",,,IL,http://www.herb-farm.co.il/,+972 4-653-1093,Restaurant,https://www.google.com/maps/search/?api=1&query=Herb%20Farm%20Restaurant&query_place_id=ChIJ29W9ARBXHBURZAPAqVecSio
פאב 40 טללים,4.1,1253,40,Tlalim,,IL,https://user-1723486.cld.bz/pub40-digital-QR-menu,+972 58-501-1712,Restaurant,https://www.google.com/maps/search/?api=1&query=%D7%A4%D7%90%D7%91%2040%20%D7%98%D7%9C%D7%9C%D7%99%D7%9D&query_place_id=ChIJsfpS5f8TAhURpt_xJfMPr50
Restaurant Awani بونجور للمشاوي,4.4,828,Ibn Haldun St,Baqa al-Gharbiyye,,IL,https://m.facebook.com/bonjur.baqa,+972 4-699-6599,Restaurant,https://www.google.com/maps/search/?api=1&query=Restaurant%20Awani%20%D8%A8%D9%88%D9%86%D8%AC%D9%88%D8%B1%20%D9%84%D9%84%D9%85%D8%B4%D8%A7%D9%88%D9%8A&query_place_id=ChIJA-JTSgcQHRURS_Xmit40UIY
Kornmehl Farm,4.2,2219,Kornmehl Farm M.E. Ramat Negev D.N. Halutza,,,IL,http://www.kornmehl.co.il/,+972 8-655-5140,Restaurant,https://www.google.com/maps/search/?api=1&query=Kornmehl%20Farm&query_place_id=ChIJMUY-I7UWAhURGhZDKm_E6tQ
claro;,4.5,6867,Ha'arbaa st 23,Tel Aviv-Yafo,,IL,http://clarotlv.com/,+972 3-601-7777,Mediterranean restaurant,https://www.google.com/maps/search/?api=1&query=claro%3B&query_place_id=ChIJR3ctqp1LHRURVjPaFraKFEc
המבשלות של ירוחם - שולה,4.6,168,HaHagana St 221,Yeruham,,IL,http://bamidbar.org/,+972 54-716-0401,Restaurant,https://www.google.com/maps/search/?api=1&query=%D7%94%D7%9E%D7%91%D7%A9%D7%9C%D7%95%D7%AA%20%D7%A9%D7%9C%20%D7%99%D7%A8%D7%95%D7%97%D7%9D%20-%20%D7%A9%D7%95%D7%9C%D7%94&query_place_id=ChIJlxFnISM_AhURsnPlWPmjOs8
מסעדת רוקפור דימונה,4.4,929,HaPo'alim St 5,Dimona,,IL,https://rokfor.co.il/,+972 8-657-2010,Restaurant,https://www.google.com/maps/search/?api=1&query=%D7%9E%D7%A1%D7%A2%D7%93%D7%AA%20%D7%A8%D7%95%D7%A7%D7%A4%D7%95%D7%A8%20%D7%93%D7%99%D7%9E%D7%95%D7%A0%D7%94&query_place_id=ChIJ_ZEaagRGAhUR1sMEYF-kFpk
פלאפל הרצל,4.5,543,"מ""ד, המעפילים 215",Dimona,,IL,https://israelbusinessguide.com/catalog/dimona/falafel_herzl___/,+972 52-554-0296,Falafel restaurant,https://www.google.com/maps/search/?api=1&query=%D7%A4%D7%9C%D7%90%D7%A4%D7%9C%20%D7%94%D7%A8%D7%A6%D7%9C&query_place_id=ChIJ8dCzewNGAhURa9CQI4fuVkc
צימר גראפה בערבה - Grappa,5.0,63,"בית ראשון במולדת, 144",Yahel,,IL,https://www.facebook.com/Zimmer.Grappa/,+972 50-603-8000,Bed & breakfast,https://www.google.com/maps/search/?api=1&query=%D7%A6%D7%99%D7%9E%D7%A8%20%D7%92%D7%A8%D7%90%D7%A4%D7%94%20%D7%91%D7%A2%D7%A8%D7%91%D7%94%20-%20Grappa&query_place_id=ChIJgdiuH1OpARURqikt-gB6sAA
Tal Burger,4.4,928,HaHotsvim Avenue 5,Mevaseret Zion,,IL,http://www.talburger.co.il/,+972 2-570-2332,Hamburger restaurant,https://www.google.com/maps/search/?api=1&query=Tal%20Burger&query_place_id=ChIJo7o0-yPXAhURKencfxFdQe8
Fernando's Smoked Meat & Bar,4.8,539,איזור תעשייה,Tlalim,,IL,https://fernandosandwhiches.com/,+972 54-224-9081,Chophouse restaurant,https://www.google.com/maps/search/?api=1&query=Fernando's%20Smoked%20Meat%20%26%20Bar&query_place_id=ChIJQboQJcoTAhUR9uYzdGIi-bU
Kibbutz Lotan Tea House בית התה קיבוץ לוטן,4.6,165,ECO KEF,Lotan,,IL,https://www.travelhotels.co.il/hotel/%D7%9E%D7%9C%D7%95%D7%9F-%D7%9E%D7%98%D7%99%D7%99%D7%9C%D7%99%D7%9D-%D7%9E%D7%93%D7%91%D7%A8%D7%99-%D7%9C%D7%95%D7%98%D7%9F//#utm_source=google-my-business&utm_medium=organic&utm_campaign=google-my-business,+972 50-431-0205,Restaurant,https://www.google.com/maps/search/?api=1&query=Kibbutz%20Lotan%20Tea%20House%20%D7%91%D7%99%D7%AA%20%D7%94%D7%AA%D7%94%20%D7%A7%D7%99%D7%91%D7%95%D7%A5%20%D7%9C%D7%95%D7%98%D7%9F&query_place_id=ChIJGc_3Nx9TABURZn8ELeDrQ00
מסעדת אנין ים המלח,4.5,171,"ים המלח, עין בוקק (מרכז פטרה",,,IL,https://www.rest.co.il/rest/80370373/,+972 8-656-5050,Restaurant,https://www.google.com/maps/search/?api=1&query=%D7%9E%D7%A1%D7%A2%D7%93%D7%AA%20%D7%90%D7%A0%D7%99%D7%9F%20%D7%99%D7%9D%20%D7%94%D7%9E%D7%9C%D7%97&query_place_id=ChIJQ5RdqbmpAxURJL104CWvOhI
Timna Park Restaurant,3.7,38,חניית אגם פארק תמנע,,,IL,https://fr.restaurantguru.com/Timna-Park-Restaurant-Hevel-Eilot,,Restaurant,https://www.google.com/maps/search/?api=1&query=Timna%20Park%20Restaurant&query_place_id=ChIJT67GODhDABUR4PUSXilk3GU
Muza,4.4,6293,"מתחם תחנת הדלק אלון, 31",Arad,,IL,https://muza-arad.co.il/,+972 8-997-5555,Restaurant,https://www.google.com/maps/search/?api=1&query=Muza&query_place_id=ChIJlfa87wMAAxURKM6IkZN1Kv8
פונדק יטבתה,4.1,10734,,Yotvata,,IL,https://yotvatapark.co.il/,+972 53-476-8290,Restaurant,https://www.google.com/maps/search/?api=1&query=%D7%A4%D7%95%D7%A0%D7%93%D7%A7%20%D7%99%D7%98%D7%91%D7%AA%D7%94&query_place_id=ChIJUzt1LUtQABURRz7pdEBFpFo
Midian,5.0,2,W284+79,Shaharut,,IL,https://www.sixsenses.com/en/hotels-resorts/middle-east-africa/israel/shaharut/dining/midian/,+972 8-615-0055,Restaurant,https://www.google.com/maps/search/?api=1&query=Midian&query_place_id=ChIJG13dQwBPABURFtjx-cZtsqE
Edom View,5.0,3,Unnamed Road,,,IL,http://sixsenses.com/,,Restaurant,https://www.google.com/maps/search/?api=1&query=Edom%20View&query_place_id=ChIJV5ZIyvRPABURghgVZsoZUrk
Agadir Burger,4.4,2190,חוף עין בוקק ים המלח,,,IL,https://agadir.co.il/branch/%D7%99%D7%9D-%D7%94%D7%9E%D7%9C%D7%97/,+972 8-928-4400,Restaurant,https://www.google.com/maps/search/?api=1&query=Agadir%20Burger&query_place_id=ChIJXY4K-YGpAxUR9dF-7eCWBrw
Sin Chan,4.7,4339,"שמעון דהאן 10, Ha-Mavreg St 1",Tiberias,,IL,http://www.sinchan.co.il/,+972 4-672-3355,Asian restaurant,https://www.google.com/maps/search/?api=1&query=Sin%20Chan&query_place_id=ChIJAwXigFk-HBURvpo59MnwzzA
Restaurant Meatbalim,4.1,1492,Derech HaGalil,Rosh Pinna,,IL,http://ertz.co.il/,+972 4-686-0107,Kosher restaurant,https://www.google.com/maps/search/?api=1&query=Restaurant%20Meatbalim&query_place_id=ChIJcxDlcBkiHBURNHB07RpNwEw
Restaurant Dalia Taverna,4.3,1270,Nof ha-Arbel St 1,Migdal,,IL,http://80194828.rest.co.il/,+972 50-722-2313,Restaurant,https://www.google.com/maps/search/?api=1&query=Restaurant%20Dalia%20Taverna&query_place_id=ChIJY51KlCU8HBURqZ2xqL8kJQU
Coffee Shop Restaurant 864,4.7,585,864,Peki'in,,IL,https://www.rest.co.il/rest/80173308/,+972 4-647-5355,Restaurant,https://www.google.com/maps/search/?api=1&query=Coffee%20Shop%20Restaurant%20864&query_place_id=ChIJTfgZSzAuHBURWu4EEdb2B2o
Neapolitan Pizza Fresca,4.6,2078,,Afikim,,IL,http://www.frescapizzeria.co.il/,+972 4-827-6366,Restaurant,https://www.google.com/maps/search/?api=1&query=Neapolitan%20Pizza%20Fresca&query_place_id=ChIJix9l_PdqHBUR38GNd5886SM
Bat-Ya'ar Farm,4.6,5958,ד.נ מרום הגליל מצפה,Amuka,,IL,http://www.batyaar.co.il/,+972 4-692-1788,Chophouse restaurant,https://www.google.com/maps/search/?api=1&query=Bat-Ya'ar%20Farm&query_place_id=ChIJfVaJgJ4hHBUR9K_bniYgkrY
Edmond Luxury Hotel & Spa מלון אדמונד ראש פינה,4.8,1842,Derech HaGalil 35,Rosh Pinna,,IL,https://www.edmond-hotel.co.il/?utm_source=google&utm_medium=wix_google_business_profile&utm_campaign=5958723184797124679,+972 4-906-4555,Hotel,https://www.google.com/maps/search/?api=1&query=Edmond%20Luxury%20Hotel%20%26%20Spa%20%D7%9E%D7%9C%D7%95%D7%9F%20%D7%90%D7%93%D7%9E%D7%95%D7%A0%D7%93%20%D7%A8%D7%90%D7%A9%20%D7%A4%D7%99%D7%A0%D7%94&query_place_id=ChIJST9_dpMjHBURYTlql7nmrK0
Lucy Ethiopian Restaurant,4.7,384,Menakhem Begin Rd 48,Tel Aviv-Yafo,,IL,https://lucyethiopianrestaurant.co.il/,+972 54-229-8956,Ethiopian restaurant,https://www.google.com/maps/search/?api=1&query=Lucy%20Ethiopian%20Restaurant&query_place_id=ChIJ__-TZXtLHRURHrJ8jKOukK0
מחלבת נטור המסעדה הכפרית של קרינה הקובנית,4.4,467,golan hights,نطور,,IL,http://natur-cheese.co.il/,+972 4-660-0325,Restaurant,https://www.google.com/maps/search/?api=1&query=%D7%9E%D7%97%D7%9C%D7%91%D7%AA%20%D7%A0%D7%98%D7%95%D7%A8%20%D7%94%D7%9E%D7%A1%D7%A2%D7%93%D7%94%20%D7%94%D7%9B%D7%A4%D7%A8%D7%99%D7%AA%20%D7%A9%D7%9C%20%D7%A7%D7%A8%D7%99%D7%A0%D7%94%20%D7%94%D7%A7%D7%95%D7%91%D7%A0%D7%99%D7%AA&query_place_id=ChIJk2u2odAFHBURl6Op9to_gjk
Bella Restaurant,4.4,2883,Ha-Ets Ha-Gadol St 2142,Beit She'arim,,IL,https://www.bellabaemek.co.il/,+972 4-983-0730,Italian restaurant,https://www.google.com/maps/search/?api=1&query=Bella%20Restaurant&query_place_id=ChIJh7Kbrp2yHRURjFcoAKBCiYY
Pizza Siciliano,4.7,605,Derech HaGalil 46,Rosh Pinna,,IL,https://www.facebook.com/profile.php?id=100063465672653,+972 77-414-9582,Pizza delivery,https://www.google.com/maps/search/?api=1&query=Pizza%20Siciliano&query_place_id=ChIJK17TeBciHBUR-e8YoLyNHM4
המכשפה - חוויה קולינארית,5.0,2,סודי,ביותר,,IL,https://www.thewitchonline.com/,+972 54-777-3878,Country food restaurant,https://www.google.com/maps/search/?api=1&query=%D7%94%D7%9E%D7%9B%D7%A9%D7%A4%D7%94%20-%20%D7%97%D7%95%D7%95%D7%99%D7%94%20%D7%A7%D7%95%D7%9C%D7%99%D7%A0%D7%90%D7%A8%D7%99%D7%AA&query_place_id=ChIJo0TGq20VAhURwjujJZkwSRU
אינתי חומוסייה דרומית,4.4,49,מרכז מרכז מסחרי מדרשת בן גוריון חנות מס 1,Midreshet Ben-Gurion,,IL,http://inti.co.il/,+972 54-780-2424,Restaurant,https://www.google.com/maps/search/?api=1&query=%D7%90%D7%99%D7%A0%D7%AA%D7%99%20%D7%97%D7%95%D7%9E%D7%95%D7%A1%D7%99%D7%99%D7%94%20%D7%93%D7%A8%D7%95%D7%9E%D7%99%D7%AA&query_place_id=ChIJ9Zwz2dUZAhUR0oMyWUluVQI
مطعم وكافيه منداريس - Mandares Restaurant & Cafe,4.3,195,,Kafr Manda,,IL,https://www.facebook.com/MandaresRestaurantCafe/,+972 4-625-4592,Restaurant,https://www.google.com/maps/search/?api=1&query=%D9%85%D8%B7%D8%B9%D9%85%20%D9%88%D9%83%D8%A7%D9%81%D9%8A%D9%87%20%D9%85%D9%86%D8%AF%D8%A7%D8%B1%D9%8A%D8%B3%20-%20Mandares%20Restaurant%20%26%20Cafe&query_place_id=ChIJD3EnFvdKHBUR2X41KW2iTbw
David's Harp Restaurant Galilee,4.5,159,VHMH+5F,Capernaum,,IL,https://sareltours.com/article/davids-harp-restaurant-in-capernaum-is-open-for-business,+972 52-270-5795,Seafood restaurant,https://www.google.com/maps/search/?api=1&query=David's%20Harp%20Restaurant%20Galilee&query_place_id=ChIJfTmVVY0XHBUR0M33kb9I0M0
"Elements Cafe Gluten-Free and Vegan, Organic",4.6,172,Kikar HaMeginim 5,Safed,,IL,http://www.elementscafe.co.il/,+972 54-653-0688,Restaurant,https://www.google.com/maps/search/?api=1&query=Elements%20Cafe%20Gluten-Free%20and%20Vegan%2C%20Organic&query_place_id=ChIJYWOef5EjHBURV_1Cn7WIdw0
Piranha chef,4.7,1394,Moshe Levi St 10,Rishon LeZion,,IL,https://piranhachef.com/,+972 3-683-2343,Hamburger restaurant,https://www.google.com/maps/search/?api=1&query=Piranha%20chef&query_place_id=ChIJRWyMcLqzAhURqjttFq8YsVY
Zesty Haifa,4.2,639,HaNassi Blvd 129,Haifa,,IL,http://zesty-carmel.co.il/,+972 4-838-0037,Hamburger restaurant,https://www.google.com/maps/search/?api=1&query=Zesty%20Haifa&query_place_id=ChIJ1ckPB6m7HRURPe5Y9gJpJnM
Yan Yan Chinese Restaurant,4.2,1703,Derekh Yafo 26,Haifa,,IL,https://yanyan.co.il/,+972 4-866-0022,Chinese restaurant,https://www.google.com/maps/search/?api=1&query=Yan%20Yan%20Chinese%20Restaurant&query_place_id=ChIJyzW8SjS6HRURI5q5VfVx2Wc
Manhattan Diner,4.6,2954,Kdoshei Bagdad St 34,Haifa,,IL,http://www.manhattanisrael.com/,+972 77-635-0073,Restaurant,https://www.google.com/maps/search/?api=1&query=Manhattan%20Diner&query_place_id=ChIJB-L0rR-7HRUR2BMHIu87XMM
מנואלה,4.2,2125,Ha-Meyasdim St 41,Zikhron Ya'akov,,IL,https://manuella-italiano.co.il/,+972 4-629-0249,Italian restaurant,https://www.google.com/maps/search/?api=1&query=%D7%9E%D7%A0%D7%95%D7%90%D7%9C%D7%94&query_place_id=ChIJuQ0cfX8JHRURAAoQDWr-pZw
Archie,4.3,3479,,Ashkelon,,IL,http://www.archie.co.il/,+972 8-633-4466,Restaurant,https://www.google.com/maps/search/?api=1&query=Archie&query_place_id=ChIJmXSkm0ycAhURx4Sb_ycLlxo
Abu Saleh Restaurant,4.2,547,,Umm al-Fahm,,IL,https://www.facebook.com/abu.saleh.res/,+972 4-655-2145,Restaurant,https://www.google.com/maps/search/?api=1&query=Abu%20Saleh%20Restaurant&query_place_id=ChIJNUaHl_wAHRURJfI6sMa9gJM
King's Court Restaurant || מסעדת הקינגס קורט - מסעדה חלבית,5.0,2,Gershon Agron St 26-28,Jerusalem,,IL,https://waldorfastoria.co.il/kings-court/,+972 54-950-9092,Restaurant,https://www.google.com/maps/search/?api=1&query=King's%20Court%20Restaurant%20%7C%7C%20%D7%9E%D7%A1%D7%A2%D7%93%D7%AA%20%D7%94%D7%A7%D7%99%D7%A0%D7%92%D7%A1%20%D7%A7%D7%95%D7%A8%D7%98%20-%20%D7%9E%D7%A1%D7%A2%D7%93%D7%94%20%D7%97%D7%9C%D7%91%D7%99%D7%AA&query_place_id=ChIJOXMGRmApAxUR561_bmUXzyA
Good Morning Restaurant,4.3,805,,Yarka,,IL,https://israelbusinessguide.com/catalog/yarka/good_morning_restaurant/,+972 4-956-5214,Mediterranean restaurant,https://www.google.com/maps/search/?api=1&query=Good%20Morning%20Restaurant&query_place_id=ChIJEfcm8n3MHRURxZnCRSwe3g0
Hanoch Restaurant,4.6,444,Sderot Deganya 3,Haifa,,IL,http://matan28280.wixsite.com/hanoch,+972 4-842-4466,Restaurant,https://www.google.com/maps/search/?api=1&query=Hanoch%20Restaurant&query_place_id=ChIJSzrWDTi3HRURa-JSDpwIinE
Puzzle Coffee - קפה פאזל,4.1,2305,"חוף הקשתות, Mafkura St 1",Ashdod,,IL,https://www.cafepuzzle.co.il/,+972 8-864-5931,Restaurant,https://www.google.com/maps/search/?api=1&query=Puzzle%20Coffee%20-%20%D7%A7%D7%A4%D7%94%20%D7%A4%D7%90%D7%96%D7%9C&query_place_id=ChIJ7-RHdRGjAhURGA80QtoHH4c
Al-Liwan Cafe and Restaurant,4.6,36,"Derech Har HaZeitim 30, Assaf Al Nshasheby 1",Jerusalem,,IL,https://www.facebook.com/LiwanJerusalem,+972 2-649-3383,Restaurant,https://www.google.com/maps/search/?api=1&query=Al-Liwan%20Cafe%20and%20Restaurant&query_place_id=ChIJAXBhFCkpAxURV2z9mBdOv_U
Sharief - Arlecchino Bar Restaurant,4.7,444,Mar Elias St,Fassuta,,IL,https://www.facebook.com/pages/Arlecchino/202139036490235/,+972 77-212-0234,Restaurant,https://www.google.com/maps/search/?api=1&query=Sharief%20-%20Arlecchino%20Bar%20Restaurant&query_place_id=ChIJiZHVea4uHBURQ2X-Dp_DwI4
מסעדת אנתיא - Antheia restaurant,4.7,213,Mar Elias St,Fassuta,,IL,https://www.antheiarest.com/,+972 4-608-0290,Restaurant,https://www.google.com/maps/search/?api=1&query=%D7%9E%D7%A1%D7%A2%D7%93%D7%AA%20%D7%90%D7%A0%D7%AA%D7%99%D7%90%20-%20Antheia%20restaurant&query_place_id=ChIJ5VJrFq4uHBURA331iV7iRyg
Ram Restaurant,4.1,317,Derech HaArba'a 1,Acre,,IL,https://www.ram-rest.com/,+972 4-991-2258,Restaurant,https://www.google.com/maps/search/?api=1&query=Ram%20Restaurant&query_place_id=ChIJDdBS3EzIHRURFgACWiaD4Nw
Keeboots Cafe - קפה קיבוץ,4.3,379,Har Oded St 5,Mitzpe Ramon,,IL,https://www.keeboots-cafe.com/?utm_source=google&utm_medium=wix_google_business_profile&utm_campaign=13953568690596383799,+972 50-606-2652,Restaurant,https://www.google.com/maps/search/?api=1&query=Keeboots%20Cafe%20-%20%D7%A7%D7%A4%D7%94%20%D7%A7%D7%99%D7%91%D7%95%D7%A5&query_place_id=ChIJfbHaAjbzARURv6fzyyrmImM
ארוחת ערב אצל ינון בארי dinner at Yinon Beeri's house,4.9,80,"D.N. Arava, Moshav Paran 253",Paran,,IL,https://www.facebook.com/share/15q1RVPKgt/,+972 52-426-0327,Mediterranean restaurant,https://www.google.com/maps/search/?api=1&query=%D7%90%D7%A8%D7%95%D7%97%D7%AA%20%D7%A2%D7%A8%D7%91%20%D7%90%D7%A6%D7%9C%20%D7%99%D7%A0%D7%95%D7%9F%20%D7%91%D7%90%D7%A8%D7%99%20dinner%20at%20Yinon%20Beeri's%20house&query_place_id=ChIJGxbj8bWfARURabvJQTVhK-E
גאפן גאפן,4.2,518,Sderot David Ben Gurion 2,Mitzpe Ramon,,IL,https://www.japan-japan.co.il/branches/branches2,+972 54-799-2115,Asian restaurant,https://www.google.com/maps/search/?api=1&query=%D7%92%D7%90%D7%A4%D7%9F%20%D7%92%D7%90%D7%A4%D7%9F&query_place_id=ChIJ3RnzGXnzARURLtxot3kEICI
עלמא,4.2,1465,Yona HaNavi St 2,Ashdod,,IL,http://www.almarest.co.il/,+972 53-963-3885,Restaurant,https://www.google.com/maps/search/?api=1&query=%D7%A2%D7%9C%D7%9E%D7%90&query_place_id=ChIJSUoqfmWiAhUR_Lq4ibu2OTk
Abu Shukri Restaurant,4.3,567,"R6PH+22G, Derech Beit Hanina , Between Al-Mu'tasem street & Abed e-rahman Dajani Street",Jerusalem,,PS,https://www.facebook.com/AbuShukriRestaurant/,,Restaurant,https://www.google.com/maps/search/?api=1&query=Abu%20Shukri%20Restaurant&query_place_id=ChIJ2cK1xm0qAxUR1GxdSiqPkAA
מסעדת הקצה,3.9,1285,Har Ardon St 2,Mitzpe Ramon,,IL,https://www.facebook.com/hakatzerestaurant?locale=he_IL,+972 8-659-5273,Restaurant,https://www.google.com/maps/search/?api=1&query=%D7%9E%D7%A1%D7%A2%D7%93%D7%AA%20%D7%94%D7%A7%D7%A6%D7%94&query_place_id=ChIJs2ImZ7PzARURJ6KfYLKv-tM
Richard Burger,4.4,152,HaGalil St 19,Nazareth,,IL,https://www.facebook.com/RichardBurgerBar/,+972 4-625-4816,Hamburger restaurant,https://www.google.com/maps/search/?api=1&query=Richard%20Burger&query_place_id=ChIJQ54FNoJOHBURFdempUq2F9s
VIVINO - ויוינו נתיבות,4.7,336,Ba'alei ha-Melakha St 3,Netivot,,IL,http://www.vivino.co.il/,+972 8-627-2121,Italian restaurant,https://www.google.com/maps/search/?api=1&query=VIVINO%20-%20%D7%95%D7%99%D7%95%D7%99%D7%A0%D7%95%20%D7%A0%D7%AA%D7%99%D7%91%D7%95%D7%AA&query_place_id=ChIJ_ZTrKHp_AhURXeNdJmHyVtI
Hummus Said Beer Sheva,4.6,1806,Keren ha-Yesod St 9,Be'er Sheva,,IL,https://israelbusinessguide.com/catalog/beer_sheva/hummus_said_beer_sheva/,+972 8-940-1157,Restaurant,https://www.google.com/maps/search/?api=1&query=Hummus%20Said%20Beer%20Sheva&query_place_id=ChIJc8PY6kBmAhURgq1lKshnbPs
Burger point- בורגר פוינט אופקים,5.0,22,Herzl Blvd 2,Ofakim,,IL,https://order.atmos.rest/burger_point_il/order/order-type?fbclid=PAZXh0bgNhZW0CMTEAAafmpsX1A6WDIXwrzklnCcQ6bifAXlYu-J3rCmFLRnEIFnb37Pw285lir2VT9Q_aem_tdUPHn4-Vovikel-ixPB8w,+972 8-922-1222,Hamburger restaurant,https://www.google.com/maps/search/?api=1&query=Burger%20point-%20%D7%91%D7%95%D7%A8%D7%92%D7%A8%20%D7%A4%D7%95%D7%99%D7%A0%D7%98%20%D7%90%D7%95%D7%A4%D7%A7%D7%99%D7%9D&query_place_id=ChIJPdOaZZh7AhURgZcmwsUJtYI
Kepasa,4.2,4872,Heil Handasa St 6,Be'er Sheva,,IL,https://kepasa.co.il/,+972 8-665-5122,Mediterranean restaurant,https://www.google.com/maps/search/?api=1&query=Kepasa&query_place_id=ChIJ45Km30tmAhURW4GGz0hoxF8
מסעדת סדפה SADAFA restaurant,4.4,706,Hita St 1,Be'er Sheva,,IL,http://www.sadafa.co.il/,+972 8-622-0112,Restaurant,https://www.google.com/maps/search/?api=1&query=%D7%9E%D7%A1%D7%A2%D7%93%D7%AA%20%D7%A1%D7%93%D7%A4%D7%94%20SADAFA%20restaurant&query_place_id=ChIJM6PULmhnAhURfcCBy0D23LU
Rafi Restaurant,4.1,229,"את חוף שמן, Ofir St 31",Haifa,,IL,https://www.rest.co.il/rest/30812700/,+972 4-864-3707,Restaurant,https://www.google.com/maps/search/?api=1&query=Rafi%20Restaurant&query_place_id=ChIJOXU--kG6HRURyIa-js9OvOw
קפטן בורגר ירושלים,3.4,825,David Remez St 5,Jerusalem,,IL,http://captainb.co.il/,+972 77-363-0173,Hamburger restaurant,https://www.google.com/maps/search/?api=1&query=%D7%A7%D7%A4%D7%98%D7%9F%20%D7%91%D7%95%D7%A8%D7%92%D7%A8%20%D7%99%D7%A8%D7%95%D7%A9%D7%9C%D7%99%D7%9D&query_place_id=ChIJsQ-fxC0oAxUR3aKrWyGxvZc
Black Burger Bar,3.8,1896,Weizmann St 301,Kefar Sava,,IL,http://www.blackbarburger.co.il/,+972 9-767-1040,Hamburger restaurant,https://www.google.com/maps/search/?api=1&query=Black%20Burger%20Bar&query_place_id=ChIJm2DD6r05HRURUTZNXRZU93g
Patrick's B7,4.7,1876,Hita St 1,Be'er Sheva,,IL,http://www.patricksb7.co.il/,+972 52-656-6132,Restaurant,https://www.google.com/maps/search/?api=1&query=Patrick's%20B7&query_place_id=ChIJA-kX61tnAhUR-CIfjJ2Xf5Q
La Shuk,4.5,3007,Dizengoff St 92,Tel Aviv-Yafo,,IL,http://www.la-shuk.co.il/,+972 3-603-3117,Restaurant,https://www.google.com/maps/search/?api=1&query=La%20Shuk&query_place_id=ChIJt-3lqYBLHRURN_cghNWVlz0
קציר - Katzir Restaurant,4.1,31,HaYarkon St 51,Tel Aviv-Yafo,,IL,https://www.kempinski.com/en/the-david-kempinski-tel-aviv/restaurants-bars/katzir,+972 74-766-2710,Restaurant,https://www.google.com/maps/search/?api=1&query=%D7%A7%D7%A6%D7%99%D7%A8%20-%20Katzir%20Restaurant&query_place_id=ChIJS-vmoOVNHRURV5c7dkS1w1w
מסעדת טרומפלדור 69,4.5,797,Trumpeldor Joseph St 69,Be'er Sheva,,IL,https://www.facebook.com/trumpeldor69/,+972 58-696-9179,Restaurant,https://www.google.com/maps/search/?api=1&query=%D7%9E%D7%A1%D7%A2%D7%93%D7%AA%20%D7%98%D7%A8%D7%95%D7%9E%D7%A4%D7%9C%D7%93%D7%95%D7%A8%2069&query_place_id=ChIJ-1yUHiNnAhUR2Xc4XJ4yB5M
Paco ve Nany | פקו ונני - Local Pizzeria,4.9,232,Nakhal Tsikhor St 10,Mitzpe Ramon,,IL,http://www.pacovenany.com/,+972 55-986-8362,Pizza restaurant,https://www.google.com/maps/search/?api=1&query=Paco%20ve%20Nany%20%7C%20%D7%A4%D7%A7%D7%95%20%D7%95%D7%A0%D7%A0%D7%99%20-%20Local%20Pizzeria&query_place_id=ChIJE05HZjHzARURm60C-P3miE8
The Palace Restaurant - מסעדת הפאלאס,3.3,13,Gershon Agron St 26-28,Jerusalem,,IL,https://waldorfastoria.co.il/palace/,+972 2-542-3333,Restaurant,https://www.google.com/maps/search/?api=1&query=The%20Palace%20Restaurant%20-%20%D7%9E%D7%A1%D7%A2%D7%93%D7%AA%20%D7%94%D7%A4%D7%90%D7%9C%D7%90%D7%A1&query_place_id=ChIJlbjWnu4pAxURxpK0pF-SxXQ
Restaurant EdiGall,4.7,368,Trumpeldor Joseph St 84,Be'er Sheva,,IL,https://israelbusinessguide.com/catalog/beer_sheva/edigall/,+972 54-633-5280,Restaurant,https://www.google.com/maps/search/?api=1&query=Restaurant%20EdiGall&query_place_id=ChIJyXZ5wRZmAhUR7cNxcBs8wnI
Cramim Restaurant,4.4,3592,Eliyahu Nawi St 34,Be'er Sheva,,IL,http://www.cramimrest.co.il/,+972 8-996-6444,Restaurant,https://www.google.com/maps/search/?api=1&query=Cramim%20Restaurant&query_place_id=ChIJ_b_F_kxmAhURn1t3IBZ8M_I
Restaurant Rachela,4.6,1270,HaMasger St 12,Ofakim,,IL,https://rachela-res.co.il/,+972 54-207-0897,Chophouse restaurant,https://www.google.com/maps/search/?api=1&query=Restaurant%20Rachela&query_place_id=ChIJUT5RCUp6AhURinl-APrnBCc
HaHavit,4.5,2544,Nakhal Tsikhor St 10,Mitzpe Ramon,,IL,http://www.hahavit.com/,+972 8-658-8226,Gastropub,https://www.google.com/maps/search/?api=1&query=HaHavit&query_place_id=ChIJg244gUbyARUR4ty2CLibdq4
Pescado,4.6,1889,Martin Buber St 1/12,Ashdod,,IL,http://www.pescado.co.il/,+972 8-852-3063,Kosher restaurant,https://www.google.com/maps/search/?api=1&query=Pescado&query_place_id=ChIJUUxvh6CjAhURs9np0Z_2At4
Ultra: Food from Israel and the Caucasus,4.6,524,Har Boker St 8,Mitzpe Ramon,,IL,https://israelbusinessguide.com/catalog/micpe_ramon/ultra_israeli_caucasian_food/,+972 52-288-9589,Restaurant,https://www.google.com/maps/search/?api=1&query=Ultra%3A%20Food%20from%20Israel%20and%20the%20Caucasus&query_place_id=ChIJn4F_hzLzARURRNmYFWHQNUk
קפאו בית שמש KAPAO THAI FOOD,4.5,579,Yig'al Alon Ave 6,Bet Shemesh,,IL,https://kapao.co.il/,+972 77-362-2222,Thai restaurant,https://www.google.com/maps/search/?api=1&query=%D7%A7%D7%A4%D7%90%D7%95%20%D7%91%D7%99%D7%AA%20%D7%A9%D7%9E%D7%A9%20KAPAO%20THAI%20FOOD&query_place_id=ChIJGbVCa1rEAhURI17DCF_ntGw
Bastory,4.9,987,Khayim Yakhil St 18,Be'er Sheva,,IL,https://ontopo.co.il/bastory?source=google,+972 8-690-8989,Restaurant,https://www.google.com/maps/search/?api=1&query=Bastory&query_place_id=ChIJJRXee5NnAhURYv3gNdQ7d9M
Restaurant,4.0,171,HaHistadrut Ave 35,Haifa,,IL,http://www.zooz360.co.il/main.asp?id=378,+972 50-800-5752,Restaurant,https://www.google.com/maps/search/?api=1&query=Restaurant&query_place_id=ChIJEdXfgUm3HRURKi7oqQxt2R0
מסעדת רמונא הכשרה - בית רמונא,4.6,76,Ma'ale Ben Tur St 1,Mitzpe Ramon,,IL,https://www.beit-ramona.com/,+972 77-938-6191,Restaurant,https://www.google.com/maps/search/?api=1&query=%D7%9E%D7%A1%D7%A2%D7%93%D7%AA%20%D7%A8%D7%9E%D7%95%D7%A0%D7%90%20%D7%94%D7%9B%D7%A9%D7%A8%D7%94%20-%20%D7%91%D7%99%D7%AA%20%D7%A8%D7%9E%D7%95%D7%A0%D7%90&query_place_id=ChIJPVGcV0XyARURhfxj_vGpCYE
TATAMI,3.8,63,Derech Haifa 30,Kiryat Ata,,IL,http://tatami-sushi.co.il/,+972 4-888-7997,Asian restaurant,https://www.google.com/maps/search/?api=1&query=TATAMI&query_place_id=ChIJ20s5FLGxHRURU1ehk3CgLZ0
The Indian Israeli restaurant at Klil. Tammy&Shlomo,3.5,44,Unnamed Road Klil,Klil,,IL,https://restaurantguru.com/The-Indian-Israeli-restaurant-at-Klil-TammyandShlomo-Klil,+972 52-326-1898,Restaurant,https://www.google.com/maps/search/?api=1&query=The%20Indian%20Israeli%20restaurant%20at%20Klil.%20Tammy%26Shlomo&query_place_id=ChIJN8majjDNHRURxigRRpJUlI4
Vegan Xpress,4.8,564,Nahal Nitsana St 41,Mitzpe Ramon,,IL,http://www.veganxpress777.com/,+972 53-429-8682,Vegan restaurant,https://www.google.com/maps/search/?api=1&query=Vegan%20Xpress&query_place_id=ChIJ4wwwCEnyARUR4Axsad-IlAs
גומבה באר שבע - יס פלאנט,4.6,2593,ברוך קטניקא 2,Be'er Sheva,,IL,http://www.goomba.co.il/,+972 3-774-3330,Italian restaurant,https://www.google.com/maps/search/?api=1&query=%D7%92%D7%95%D7%9E%D7%91%D7%94%20%D7%91%D7%90%D7%A8%20%D7%A9%D7%91%D7%A2%20-%20%D7%99%D7%A1%20%D7%A4%D7%9C%D7%90%D7%A0%D7%98&query_place_id=ChIJm73NUydmAhURz15JLx_12CQ
Restaurant Rose,4.5,267,Mivtsa Nakhshon St 60,Be'er Sheva,,IL,https://israelbusinessguide.com/catalog/beer_sheva/restaurant_rose/,+972 8-648-0776,Restaurant,https://www.google.com/maps/search/?api=1&query=Restaurant%20Rose&query_place_id=ChIJ41SABmVmAhURan6Jrebj7F0
Eduardo's Restaurant,3.0,2,Armonim St 118,Kiryat Yam,,IL,http://www.facebook.com/eduardosrest,+972 50-217-2707,Argentinian restaurant,https://www.google.com/maps/search/?api=1&query=Eduardo's%20Restaurant&query_place_id=ChIJAQAAADW6HRURgXGRrlLeJy4
Robian Restaurant,4.2,37,דרך שעפט 50,Jerusalem,,IL,https://www.facebook.com/RobianRestaurant/,+972 2-663-8484,Seafood restaurant,https://www.google.com/maps/search/?api=1&query=Robian%20Restaurant&query_place_id=ChIJQ4V0fGIrAxURXcJGSVY3APU
Why? Restaurant Cafe,4.6,306,כביש הראשי,Majdal Shams,,IL,https://www.facebook.com/WHY-Restaurant-Bar-1413087665598595/,+972 54-793-7187,Restaurant,https://www.google.com/maps/search/?api=1&query=Why%3F%20Restaurant%20Cafe&query_place_id=ChIJL-JfYaK3HhUR45wtDHFW4RE
Kangaroo Georgian Restaurant,4.3,1025,Ma'alot Nakhalat Shiv'a St 7,Jerusalem,,IL,https://www.facebook.com/Kangaroo.Georgian.Restaurant/,+972 2-625-0618,Georgian restaurant,https://www.google.com/maps/search/?api=1&query=Kangaroo%20Georgian%20Restaurant&query_place_id=ChIJ6Ylh1NYpAxUR5-4gAS0YxLE
Martha Deli,4.8,229,Sderot HaMeginim 90,Haifa,,IL,https://www.instagram.com/martha_deli_il?igsh=dTMxdHp5cjl2YnN2&utm_source=qr,+972 4-600-2055,Deli,https://www.google.com/maps/search/?api=1&query=Martha%20Deli&query_place_id=ChIJg67GAxu7HRURL-fuGXE3f_8
Portioli Italian Restaurant,3.8,625,Sderot Ma'ale Yitshak 14,Nof HaGalil,,IL,https://israelbusinessguide.com/catalog/nof_hagalil_nacrat_ilit_/portioli_italian_restaurant/,+972 77-729-6378,Italian restaurant,https://www.google.com/maps/search/?api=1&query=Portioli%20Italian%20Restaurant&query_place_id=ChIJj_3lMd1OHBURjJXm9fU2Q9o
Chiang Mai Chinese Restaurant,3.9,790,Ha-Meyasdim St 50,Zikhron Ya'akov,,IL,https://www.rest.co.il/rest/40187760/,+972 4-629-2920,Chinese restaurant,https://www.google.com/maps/search/?api=1&query=Chiang%20Mai%20Chinese%20Restaurant&query_place_id=ChIJnRFBe38JHRURZBrDyXL0XSc
Hummus Jerusalem,4.8,1976,Yerushalayim St 26,Hadera,,IL,https://www.facebook.com/%D7%97%D7%95%D7%9E%D7%95%D7%A1-%D7%99%D7%A8%D7%95%D7%A9%D7%9C%D7%99%D7%9D-%D7%A1%D7%A0%D7%99%D7%A3-%D7%97%D7%93%D7%A8%D7%94-1391494381144463/?ref=br_rs,+972 4-641-1128,Israeli restaurant,https://www.google.com/maps/search/?api=1&query=Hummus%20Jerusalem&query_place_id=ChIJobKZNUcSHRURlEQMw_e2tAk
Casa Barone Restaurant | מסעדת קאזה ברונה,4.0,250,Zahal 4,Zikhron Ya'akov,,IL,https://casa-barone.co.il/,+972 4-629-0999,Kosher restaurant,https://www.google.com/maps/search/?api=1&query=Casa%20Barone%20Restaurant%20%7C%20%D7%9E%D7%A1%D7%A2%D7%93%D7%AA%20%D7%A7%D7%90%D7%96%D7%94%20%D7%91%D7%A8%D7%95%D7%A0%D7%94&query_place_id=ChIJEV0kYNELHRURkaZa27mxv4I
Su-Shai Sushi - סושי בוטיק,4.8,125,Moshe Goshen Ave 25,Kiryat Motzkin,,IL,http://su-shai.com/,+972 54-450-5455,Delivery service,https://www.google.com/maps/search/?api=1&query=Su-Shai%20Sushi%20-%20%D7%A1%D7%95%D7%A9%D7%99%20%D7%91%D7%95%D7%98%D7%99%D7%A7&query_place_id=ChIJV5mQsk23HRURpHPfMofM894
JAPANIKA KIRYAT MOTZKIN,4.3,1215,Moshe Goshen Ave 92,Kiryat Motzkin,,IL,http://www.japanika.net/,+972 3-723-6100,Asian restaurant,https://www.google.com/maps/search/?api=1&query=JAPANIKA%20KIRYAT%20MOTZKIN&query_place_id=ChIJ6zItdjm3HRURtey7U6QKBIc
Sabino Steakhouse,4.3,1446,David Remez St 18,Kefar Sava,,IL,http://www.rol.co.il/sites/sabino/,+972 9-760-2647,Kosher restaurant,https://www.google.com/maps/search/?api=1&query=Sabino%20Steakhouse&query_place_id=ChIJuzay0lU4HRUR8f59kdM2JFc
בוץ מסעדה BOTZ Dining,4.9,68,Ha-Shita St 3,Mitzpe Ramon,,IL,https://www.instagram.com/botzbytal/,+972 52-826-5440,Restaurant,https://www.google.com/maps/search/?api=1&query=%D7%91%D7%95%D7%A5%20%D7%9E%D7%A1%D7%A2%D7%93%D7%94%20BOTZ%20Dining&query_place_id=ChIJOXSSfGPzARUR0UKvL_aPCY0
KESAR קסר מסעדה הודית,4.1,334,Sirkin St 11,Haifa,,IL,https://www.rest.co.il/rest/80352944/,+972 58-544-6586,Indian restaurant,https://www.google.com/maps/search/?api=1&query=KESAR%20%D7%A7%D7%A1%D7%A8%20%D7%9E%D7%A1%D7%A2%D7%93%D7%94%20%D7%94%D7%95%D7%93%D7%99%D7%AA&query_place_id=ChIJV1W5YmW7HRURn8CKb_S9PmI
Al Halal Restaurant,4.0,99,כביש 805,Arraba,,IL,https://restaurantguru.com/Al-Halal-Restaurant-Arraba,+972 52-308-9880,Restaurant,https://www.google.com/maps/search/?api=1&query=Al%20Halal%20Restaurant&query_place_id=ChIJ47HrE_M2HBURBVJ3v6Y-s4c
פיצה ארטיזנל Pizza Artesanal,4.7,100,כפר האומנים,Tzukim,,IL,https://www.instagram.com/pizzaria_tzukim?igsh=b2J6aTF1bm50OWVw,+972 52-366-6811,Pizza restaurant,https://www.google.com/maps/search/?api=1&query=%D7%A4%D7%99%D7%A6%D7%94%20%D7%90%D7%A8%D7%98%D7%99%D7%96%D7%A0%D7%9C%20Pizza%20Artesanal&query_place_id=ChIJVd-ak9yDARURpGQAo5Hz6hM
Sumsumiya,4.7,1015,Nakhal Tsiya St 7,Mitzpe Ramon,,IL,https://tbit.be/pui3dD,+972 55-318-2300,Restaurant,https://www.google.com/maps/search/?api=1&query=Sumsumiya&query_place_id=ChIJp7mJ-djzARURMYdahLiUX1A
Tarbush Cafe & Restaurant,3.9,424,Sderot Ben Gurion 36,Haifa,,IL,https://www.facebook.com/tarbushcafferestaurant,+972 4-811-1017,Restaurant,https://www.google.com/maps/search/?api=1&query=Tarbush%20Cafe%20%26%20Restaurant&query_place_id=ChIJh8K097W7HRURuPBrBB9MiF8
Star Restaurant - Yussef Brothers,4.4,435,Sderot HaMeginim 19,Haifa,,IL,https://restaurantguru.com/msedt-abv-ivsp-Haifa-2,+972 4-864-0666,Restaurant,https://www.google.com/maps/search/?api=1&query=Star%20Restaurant%20-%20Yussef%20Brothers&query_place_id=ChIJ2-w4kzW6HRURBP8_m5oRn9Q
Marmaris Restaurant,4.5,4,,Nahf,,IL,https://m.facebook.com/rest.marmaris/,+972 50-362-8884,Restaurant,https://www.google.com/maps/search/?api=1&query=Marmaris%20Restaurant&query_place_id=ChIJfUfrJa0xHBURjwmmEN2NYd0
Matza Restaurant,4.1,1485,"מתחם תחנת דלק, Derekh Ruppin",Haifa,,IL,http://mazarestaurant.net/,+972 4-824-7399,Mediterranean restaurant,https://www.google.com/maps/search/?api=1&query=Matza%20Restaurant&query_place_id=ChIJP5aZqfu6HRURYffOQm3sIA4
Captain Burger,4.0,614,דן שכטמן 10,Hadera,,IL,https://captainb.co.il/,+972 73-274-5545,Kosher restaurant,https://www.google.com/maps/search/?api=1&query=Captain%20Burger&query_place_id=ChIJ7T9xMNUTHRURHwy-9r2BguA
הדרומית - מסעדת בשרים כשרה,4.3,3117,"מתחם ישפרו סנטר, Tsvi Taub St 1",Be'er Sheva,,IL,http://www.hadromit.papa-goup.co.il/,+972 79-674-4711,Kosher restaurant,https://www.google.com/maps/search/?api=1&query=%D7%94%D7%93%D7%A8%D7%95%D7%9E%D7%99%D7%AA%20-%20%D7%9E%D7%A1%D7%A2%D7%93%D7%AA%20%D7%91%D7%A9%D7%A8%D7%99%D7%9D%20%D7%9B%D7%A9%D7%A8%D7%94&query_place_id=ChIJ2Zr2N5xoAhURIq0GiK1I4qk
Falafel Zichron,4.7,607,Ha-Meyasdim St 60,Zikhron Ya'akov,,IL,https://falafelzichron.co.il/,+972 4-629-2226,Falafel restaurant,https://www.google.com/maps/search/?api=1&query=Falafel%20Zichron&query_place_id=ChIJabwV0IEJHRURwLJ2xUjI9cE
Aviv Restaurant,4.8,95,"מרכז רסקו, Atsmon St 16",Nof HaGalil,,IL,https://www.avivsrestaurant.co.il/,+972 4-610-3190,Kosher restaurant,https://www.google.com/maps/search/?api=1&query=Aviv%20Restaurant&query_place_id=ChIJqbP9p5VPHBURYHj8r17YPvs
Glida Romanian Restaurant,4.4,2964,Kibuts Galuyot St 23,Haifa,,IL,http://www.glida.com/,+972 4-866-7929,Romanian restaurant,https://www.google.com/maps/search/?api=1&query=Glida%20Romanian%20Restaurant&query_place_id=ChIJO_k5tUi6HRURuBJcwMj1vsw
גן ירק,4.8,159,52,Tzofar,,IL,https://www.facebook.com/gan.yarak.arava,+972 52-366-6819,Restaurant,https://www.google.com/maps/search/?api=1&query=%D7%92%D7%9F%20%D7%99%D7%A8%D7%A7&query_place_id=ChIJxa8lf5mBARUR8s_83yQ8a0U
דיאנא נצרת Diana Restaurant,4.0,1297,"Paul Paul VI, 51",Nazareth,,IL,https://dianaa.rest.co.il/,+972 4-657-2919,Family restaurant,https://www.google.com/maps/search/?api=1&query=%D7%93%D7%99%D7%90%D7%A0%D7%90%20%D7%A0%D7%A6%D7%A8%D7%AA%20Diana%20Restaurant&query_place_id=ChIJbb-IP89NHBURKbx-aE6jUS8
Kinor David Restaurant,4.4,647,Ha-Nasi Weizman St 23,Afula,,IL,http://bit.ly/Kinor2021,+972 4-659-1910,Restaurant,https://www.google.com/maps/search/?api=1&query=Kinor%20David%20Restaurant&query_place_id=ChIJb2mDdsRTHBURt0o0xcMt5xw
Al-Sheikh Restaurant,4.4,527,Iksal St 2,Nazareth,,IL,https://www.facebook.com/alsheikh.restaurant.naz/,+972 4-656-7664,Restaurant,https://www.google.com/maps/search/?api=1&query=Al-Sheikh%20Restaurant&query_place_id=ChIJGaERo9RNHBURFCqbfgcxLiw
Golden Goose Restaurant,4.2,5058,"מרכז ביג, Eliyahu Nawi St 24",Be'er Sheva,,IL,https://www.avazhazahav.co.il/,+972 8-628-7675,Chophouse restaurant,https://www.google.com/maps/search/?api=1&query=Golden%20Goose%20Restaurant&query_place_id=ChIJ0V_FWmlmAhURNeSjEEjJLMA
מסעדת הוא Hooka RESTAURANT,5.0,4,,Yarka,,IL,https://dinu.co.il/rest/hooka,+972 54-792-8168,Restaurant,https://www.google.com/maps/search/?api=1&query=%D7%9E%D7%A1%D7%A2%D7%93%D7%AA%20%D7%94%D7%95%D7%90%20Hooka%20RESTAURANT&query_place_id=ChIJE69yXmLNHRURDZR9rT1XNfw
Kansai,4.2,411,Refa'el Eitan St 3,Petah Tikva,,IL,https://kansai.co.il/,+972 3-602-7707,Asian restaurant,https://www.google.com/maps/search/?api=1&query=Kansai&query_place_id=ChIJWXvUPD82HRURmNAs6sD9Iic
Azura,4.4,4013,Ha-Eshkol St 4,Jerusalem,,IL,https://www.facebook.com/AZURARESTURANT/?rf=246605802020055,+972 2-623-5204,Middle Eastern restaurant,https://www.google.com/maps/search/?api=1&query=Azura&query_place_id=ChIJ8epn9SjWAhUR6infQ_h30kw
Burger Saloon,4.6,678,Ha-Ta'asiya St 1,Yokne'am Illit,,IL,https://burgersaloon.co.il/yokneam/,+972 73-397-6302,Hamburger restaurant,https://www.google.com/maps/search/?api=1&query=Burger%20Saloon&query_place_id=ChIJyX10J2avHRURQsGSu5osqmw
Ha'Ahuza Grill-Bar,4.3,3881,HaHashmal St 1,Afula,,IL,http://achuzagrillbar.co.il/,+972 4-642-7428,Bar & grill,https://www.google.com/maps/search/?api=1&query=Ha'Ahuza%20Grill-Bar&query_place_id=ChIJaWytfZVRHBUR56-2CMT8MVo
Fishers' Restaurant מסעדת הדייגים,4.3,485,مطعم الصيادين,Acre,,IL,https://israelbusinessguide.com/catalog/akko/fishers_restaurant__/,+972 4-682-0330,Seafood restaurant,https://www.google.com/maps/search/?api=1&query=Fishers'%20Restaurant%20%D7%9E%D7%A1%D7%A2%D7%93%D7%AA%20%D7%94%D7%93%D7%99%D7%99%D7%92%D7%99%D7%9D&query_place_id=ChIJrSm64bwIHRURWfdq0vDp7-4
Safeta restaurant,4.0,40,Ha-Gdud ha-Shlishi St 106,Safed,,IL,https://www.villa-galilee.com/,+972 73-262-6196,French restaurant,https://www.google.com/maps/search/?api=1&query=Safeta%20restaurant&query_place_id=ChIJ-YrdEsQjHBUR8o53LY2c-RI
Locanda - לוקנדה נצרת,4.4,790,Derekh ha-Tsiyonut 29,Nof HaGalil,,IL,https://locanda.rest/,+972 4-613-0351,Arab restaurant,https://www.google.com/maps/search/?api=1&query=Locanda%20-%20%D7%9C%D7%95%D7%A7%D7%A0%D7%93%D7%94%20%D7%A0%D7%A6%D7%A8%D7%AA&query_place_id=ChIJL0VexYVOHBURBVhtLtn12d8
Nora's kitchen,4.5,905,רחוב 6,דלית אל כרמל,,IL,http://nuraskitchen.co.il/,+972 52-384-8576,Kosher restaurant,https://www.google.com/maps/search/?api=1&query=Nora's%20kitchen&query_place_id=ChIJpWJT7nmvHRUR6leCXbHH0v8
Restaurant,4.7,25,,Yodfat,,IL,http://www.goatswiththewind.com/,+972 50-532-7387,Restaurant,https://www.google.com/maps/search/?api=1&query=Restaurant&query_place_id=ChIJP9AOuY81HBURPF2sIOoHDe4
"מכוורת פורת- בר מסעדה, המבורגרים, המקום לאכול בערבה",4.7,129,משק 25,Ein Yahav,,IL,https://www.porat.farm/,+972 58-566-6032,Restaurant,https://www.google.com/maps/search/?api=1&query=%D7%9E%D7%9B%D7%95%D7%95%D7%A8%D7%AA%20%D7%A4%D7%95%D7%A8%D7%AA-%20%D7%91%D7%A8%20%D7%9E%D7%A1%D7%A2%D7%93%D7%94%2C%20%D7%94%D7%9E%D7%91%D7%95%D7%A8%D7%92%D7%A8%D7%99%D7%9D%2C%20%D7%94%D7%9E%D7%A7%D7%95%D7%9D%20%D7%9C%D7%90%D7%9B%D7%95%D7%9C%20%D7%91%D7%A2%D7%A8%D7%91%D7%94&query_place_id=ChIJ72-AVhnVAxURDrxb_ZDzvKI
Pizza Arena,3.9,62,Ha-Banim St 20,Tiberias,,IL,http://pizza-arena.co.il/,+972 4-672-6115,Pizza restaurant,https://www.google.com/maps/search/?api=1&query=Pizza%20Arena&query_place_id=ChIJea73nUk-HBUR1Unl6CZsMHs
Burgus Burger Bar (BBB),4.1,2183,"קניון שרונים, Ha-Rakun St 2",Hod Hasharon,,IL,http://burgus.co.il/,+972 9-744-7777,Hamburger restaurant,https://www.google.com/maps/search/?api=1&query=Burgus%20Burger%20Bar%20(BBB)&query_place_id=ChIJ7yYzDKI3HRURRQ7dkOJWWoY
PIZZA DONA,4.4,116,Jerusalem St 710,Tiberias,,IL,http://www.pizza-time.co.il/,+972 4-999-7117,Pizza restaurant,https://www.google.com/maps/search/?api=1&query=PIZZA%20DONA&query_place_id=ChIJSxpkswY_HBUR_zEprwCbR2g
Pizza Noam,4.2,176,Jerusalem St 47,Safed,,IL,https://erezcopy.wixsite.com/pizza-noam,,Pizza restaurant,https://www.google.com/maps/search/?api=1&query=Pizza%20Noam&query_place_id=ChIJr04jWZEjHBURiNpaNhK5SFI
Burgus Burger Bar,4.3,2839,"מתחם G, Ha-Tamar St 2",Yokne'am Illit,,IL,https://burgus.co.il/?item=33&section=3,+972 4-959-0098,Hamburger restaurant,https://www.google.com/maps/search/?api=1&query=Burgus%20Burger%20Bar&query_place_id=ChIJ5ZgXVL-uHRUR03x_7iMtMZs
Talpiot,4.3,1902,Sirkin St 28,Haifa,,IL,https://talpiot.kitchen/,+972 4-699-2296,Seafood restaurant,https://www.google.com/maps/search/?api=1&query=Talpiot&query_place_id=ChIJKXtFjk66HRUREy5KdsZ-Zjg
Humus Eliyahu,4.3,714,"בית המזרחי, הירקון פינת הגליל הירקון 1 בניין",Tiberias,,IL,https://www.facebook.com/humustiberias/,+972 4-823-3309,Kosher restaurant,https://www.google.com/maps/search/?api=1&query=Humus%20Eliyahu&query_place_id=ChIJgdKKa0k-HBURsoHAfOHFrtc
ג׳פניקה צמח | JAPANIKA MALL KINNERET ZEMACH,3.8,3242,מול,Degania Alef,,IL,https://www.japanika.net/branch/%D7%A6%D7%9E%D7%97/,+972 3-723-6100,Asian restaurant,https://www.google.com/maps/search/?api=1&query=%D7%92%D7%B3%D7%A4%D7%A0%D7%99%D7%A7%D7%94%20%D7%A6%D7%9E%D7%97%20%7C%20JAPANIKA%20MALL%20KINNERET%20ZEMACH&query_place_id=ChIJS5Ij_ZRqHBUR6PICFeljMtc
Mazat rest,4.7,130,HaGalil St 2,Nazareth,,IL,https://www.facebook.com/mazat%20restaurant,+972 4-601-6333,Restaurant,https://www.google.com/maps/search/?api=1&query=Mazat%20rest&query_place_id=ChIJac4Yk2tNHBURcqqyQxfMDUw
Alothmani Restaurant,4.2,994,,Tamra,,IL,https://www.zooz360.co.il/main.asp?id=1514,+972 4-994-7513,Halal restaurant,https://www.google.com/maps/search/?api=1&query=Alothmani%20Restaurant&query_place_id=ChIJRYepzWK1HRUR71H9eJ8oRP8
Essa Homus,4.5,389,Yokhanan Ben Zakai St 7,Tiberias,,IL,https://israelbusinessguide.com/catalog/tveriya/essa_homus/,+972 4-679-2788,Restaurant,https://www.google.com/maps/search/?api=1&query=Essa%20Homus&query_place_id=ChIJJ0obK08-HBURFunNv-NwtCE
Tree of Life Cafe,4.0,65,Meginei Tsfat St 5,Safed,,IL,https://m.facebook.com/Tree-Of-Life-Cafe-1579467392324849/,+972 50-696-0239,Vegetarian restaurant,https://www.google.com/maps/search/?api=1&query=Tree%20of%20Life%20Cafe&query_place_id=ChIJ5z7l0ZMjHBURw6GAH_gpnJY
BBB Rosh Pina,3.7,2902,"סנטר הגליל, HaTapu'ach St 3",Rosh Pinna,,IL,https://www.burgus.co.il/rosh_pina_menu/#mr-tab-0,+972 4-686-0222,Hamburger restaurant,https://www.google.com/maps/search/?api=1&query=BBB%20Rosh%20Pina&query_place_id=ChIJXTBcChwiHBURuoQDNqLVXGs
Pergamon - פרגמון,4.5,876,Heleni ha-Malka St 7,Jerusalem,,IL,https://www.pergamonjlm.com/,+972 50-684-3988,Mediterranean restaurant,https://www.google.com/maps/search/?api=1&query=Pergamon%20-%20%D7%A4%D7%A8%D7%92%D7%9E%D7%95%D7%9F&query_place_id=ChIJPbJJx9ApAxUR3bLRnJ7Pivw
Jem's Beer Factory,4.5,1219,Brener St 6,Ra'anana,,IL,http://www.jems.co.il/,+972 9-771-3790,Bar,https://www.google.com/maps/search/?api=1&query=Jem's%20Beer%20Factory&query_place_id=ChIJx5A1aBM4HRURoSLtFuadhls
Yume,4.2,535,Ha-Meyasdim St 4,Binyamina-Giv'at Ada,,IL,http://www.yume.co.il/,+972 4-980-4444,Japanese restaurant,https://www.google.com/maps/search/?api=1&query=Yume&query_place_id=ChIJCa2CQxwMHRURrXtqOndVpSI
מסעדת בשרים אגדה מזרחית,4.0,54,Sderot Yig'al Alon 1,Dimona,,IL,https://www.rest.co.il/rest/80284468/,+972 77-540-7017,Restaurant,https://www.google.com/maps/search/?api=1&query=%D7%9E%D7%A1%D7%A2%D7%93%D7%AA%20%D7%91%D7%A9%D7%A8%D7%99%D7%9D%20%D7%90%D7%92%D7%93%D7%94%20%D7%9E%D7%96%D7%A8%D7%97%D7%99%D7%AA&query_place_id=ChIJuaqnLAFGAhURaIXjm_MCamU
Onyx haifa,4.5,545,Derech HaAtsma'ut 104,Haifa,,IL,https://onyxhaifa.co.il/,+972 4-660-0600,Restaurant,https://www.google.com/maps/search/?api=1&query=Onyx%20haifa&query_place_id=ChIJB45JLDa7HRURAUJLe0NJDNw
Pizza Hut,3.5,512,Ha-Banim St 1,Tiberias,,IL,https://www.pizzahut.co.il/branch/tverya/,+972 1-700-506-070,Pizza restaurant,https://www.google.com/maps/search/?api=1&query=Pizza%20Hut&query_place_id=ChIJv-PH4kg-HBURhlDJ_yk1jAs
El-Galil,4.5,1077,HaOranim St 98,Amirim,,IL,https://vegansontop.co.il/places/el-galil/,+972 52-517-7400,Vegan restaurant,https://www.google.com/maps/search/?api=1&query=El-Galil&query_place_id=ChIJNSHsl8UkHBURm5ScT0FZCec
מסעדת לוטה - Lotte Restaurant,3.8,320,Eli'ezer Kaplan Blvd 1,Tiberias,,IL,https://tabitisrael.co.il/online-reservations/create-reservation?step=search&orgId=60ea9fe46f415239d5c257fe,+972 4-670-7077,Kosher restaurant,https://www.google.com/maps/search/?api=1&query=%D7%9E%D7%A1%D7%A2%D7%93%D7%AA%20%D7%9C%D7%95%D7%98%D7%94%20-%20Lotte%20Restaurant&query_place_id=ChIJZ0TS8O0_HBURWgjvIBpJmQ4
Colony Grill,4.5,4631,Derech Allenby 56,Haifa,,IL,http://www.colonygrill.co.il/,+972 4-855-2555,Chophouse restaurant,https://www.google.com/maps/search/?api=1&query=Colony%20Grill&query_place_id=ChIJi_jZCra7HRURpNcfNGalqks
Restaurant,4.5,37,,Tiberias,,IL,https://www.getrestaur.co.il/%D7%9E%D7%A1%D7%A2%D7%93%D7%AA%20-%20%D7%99%D7%A2%D7%A8%20%D7%94%D7%90%D7%95%D7%A8%D7%9F%20-%206239,,Restaurant,https://www.google.com/maps/search/?api=1&query=Restaurant&query_place_id=ChIJ0wrE9Ug-HBUROtWKEjOt70w
Restaurant Doniana,4.4,4236,סאלח אלבסרי,Acre,,IL,https://doniana.rest.co.il/,+972 4-991-0001,Mediterranean restaurant,https://www.google.com/maps/search/?api=1&query=Restaurant%20Doniana&query_place_id=ChIJP3KxMETIHRURDpIHA6ROruw
Restaurant arabesque,4.6,606,,Kafr Yasif,,IL,http://www.2eat.co.il/arabesque/,+972 4-956-6445,Restaurant,https://www.google.com/maps/search/?api=1&query=Restaurant%20arabesque&query_place_id=ChIJr7OiYm_MHRURDlRWgDae2PY
Mendi's Tzfat,4.4,2260,"Jerusalem St 33, קומה 2",Safed,,IL,https://mendis.co.il/,+972 77-410-8002,Family restaurant,https://www.google.com/maps/search/?api=1&query=Mendi's%20Tzfat&query_place_id=ChIJI0yVwpMjHBURzCAuL2q8bjE
Thai Underground,4.1,1584,Hagana St 1,Pardes Hanna-Karkur,,IL,http://thai-underground.co.il/,+972 51-202-0590,Thai restaurant,https://www.google.com/maps/search/?api=1&query=Thai%20Underground&query_place_id=ChIJkT78v08OHRUR2C0ir0S4X3Q
Machneyuda,4.4,5278,Beit Ya'akov St 10,Jerusalem,,IL,http://www.machneyuda.co.il/,+972 2-533-3442,Restaurant,https://www.google.com/maps/search/?api=1&query=Machneyuda&query_place_id=ChIJ9ZPR6yjWAhURXAEV2XEL8yw
Dewan al-Saraya Old City Abu Ashraf Restaurant,4.4,306,6134 St 2,Nazareth,,IL,https://israelbusinessguide.com/catalog/nazaret/dewan_al-saraya_old_city_abu_ashraf_restaurant/,,Restaurant,https://www.google.com/maps/search/?api=1&query=Dewan%20al-Saraya%20Old%20City%20Abu%20Ashraf%20Restaurant&query_place_id=ChIJ24wpnStMHBURIYtS2R7ZtY0
Cafe Monitin,4.2,1558,Jerusalem St 70,Safed,,IL,http://cafemonitin.com/,+972 4-824-3638,Kosher restaurant,https://www.google.com/maps/search/?api=1&query=Cafe%20Monitin&query_place_id=ChIJG4MUTpEjHBURVOloc2-1GfA
Sultan Restaurant,4.2,955,Ha-Mavreg St 1,Poria Illit,,IL,https://alsultan.rest/,+972 4-673-3488,Restaurant,https://www.google.com/maps/search/?api=1&query=Sultan%20Restaurant&query_place_id=ChIJHeB4xCI_HBURW7fojas37aI
Queen Lu,3.8,282,Brener St 6,Ra'anana,,IL,https://queenlu.co.il/,+972 9-979-0009,Asian restaurant,https://www.google.com/maps/search/?api=1&query=Queen%20Lu&query_place_id=ChIJgzBsQ9M5HRUR23BXXHUP8Tg
My Place,4.5,210,רחוב ביר באקה תד 3375,Baqa al-Gharbiyye,,IL,https://israelbusinessguide.com/catalog/baqa_al-gharbiyye/my_place__/,+972 4-601-6012,Barbecue restaurant,https://www.google.com/maps/search/?api=1&query=My%20Place&query_place_id=ChIJ_UuLcg0QHRURZXldPGxWHI8
Dave’s,4.8,87,Beit Eshel St 101,Yeruham,,IL,https://daves.orderss.co.il/,+972 50-556-5040,Restaurant,https://www.google.com/maps/search/?api=1&query=Dave%E2%80%99s&query_place_id=ChIJJ57dhIE_AhURh4saQ_bGwoA
Asado Restaurant,4.6,444,300 6,Yafa an-Naseriyye,,IL,https://www.instagram.com/asado_resturant/profilecard/?igsh=MXh2bjJ5d2s2a21tNw==,+972 4-911-9353,Chophouse restaurant,https://www.google.com/maps/search/?api=1&query=Asado%20Restaurant&query_place_id=ChIJpQQVniRNHBURHBW_nVcag_k
Habokrim Restaurant,4.4,2960,,Merom Golan,,IL,https://www.meromgolantourism.co.il/restaurants?_ga=2.114443587.558990156.1524298165-466284567.1516005125,+972 4-696-0206,Kosher restaurant,https://www.google.com/maps/search/?api=1&query=Habokrim%20Restaurant&query_place_id=ChIJka8l7tavHhUR-kPMLEEB4fg
Decks Restaurant,3.9,2403,Gdud Barak St 13,Tiberias,,IL,http://www.decks.co.il/site/lidogalilee/home/decks,+972 4-671-0800,Restaurant,https://www.google.com/maps/search/?api=1&query=Decks%20Restaurant&query_place_id=ChIJj8AA_Uc-HBUREDu9cnAVvXk
Tanureen,4.2,3426,90,Migdal,,IL,http://tanureen.co.il/,+972 53-809-6629,Mediterranean restaurant,https://www.google.com/maps/search/?api=1&query=Tanureen&query_place_id=ChIJx7ssKoM-HBURYwA3ddiyR1U
בפטיו של דבו,4.7,171,,Tlalim,,IL,https://bliss-media.co.il/uri/,+972 54-434-1281,Chophouse restaurant,https://www.google.com/maps/search/?api=1&query=%D7%91%D7%A4%D7%98%D7%99%D7%95%20%D7%A9%D7%9C%20%D7%93%D7%91%D7%95&query_place_id=ChIJARKUDBYRAhURMVn56lx32lE
Sangria Restaurant Tapas,4.5,876,HaBankim St 5,Haifa,,IL,http://www.sangria-restaurant-tapas.com/,+972 77-330-1067,Spanish restaurant,https://www.google.com/maps/search/?api=1&query=Sangria%20Restaurant%20Tapas&query_place_id=ChIJE46UipW7HRURcwsBHZR81gc
Magdalena restaurant,4.5,3077,"מתחם הגליל, כביש 90",Migdal,,IL,https://www.magdalena.co.il/,+972 4-673-0064,Restaurant,https://www.google.com/maps/search/?api=1&query=Magdalena%20restaurant&query_place_id=ChIJyTRLkII-HBUR4PPpqzoQmgs
מסעדת 1910,4.7,3928,חצר HaRishonim,Degania Alef,,IL,http://www.1910.co.il/,+972 4-660-8565,Italian restaurant,https://www.google.com/maps/search/?api=1&query=%D7%9E%D7%A1%D7%A2%D7%93%D7%AA%201910&query_place_id=ChIJVdYHLJhqHBURvFIIdGf9I_k
מול הים בר מסעדה - Mul Hayam Restaurant & Bar‎,4.5,2192,קניון עין התכלת - ים המלח ים המלח,,,IL,https://www.rest.co.il/rest/80329688/,+972 52-326-4933,Restaurant,https://www.google.com/maps/search/?api=1&query=%D7%9E%D7%95%D7%9C%20%D7%94%D7%99%D7%9D%20%D7%91%D7%A8%20%D7%9E%D7%A1%D7%A2%D7%93%D7%94%20-%20Mul%20Hayam%20Restaurant%20%26%20Bar%E2%80%8E&query_place_id=ChIJi3DUhKCpAxURivegGCZ2Nas
Hermitage restaurant,4.2,1516,Yigal Alon Promenade,Tiberias,,IL,https://www.hermitage-restaurant.co.il/,+972 77-822-4200,Restaurant,https://www.google.com/maps/search/?api=1&query=Hermitage%20restaurant&query_place_id=ChIJUTy2_kk-HBURwYxxFaqWEt8
Tower Restaurant,4.3,1393,תחנת דלק דור אלון,Alumot,,IL,https://restaurantguru.com/Tower-Restaurant-Alumot,+972 4-675-0427,Middle Eastern restaurant,https://www.google.com/maps/search/?api=1&query=Tower%20Restaurant&query_place_id=ChIJ69YMWzZAHBUROO1AOYxdwDc
Opera Yemenite Restaurant,4.4,779,HaNassi St 61,Hadera,,IL,http://www.operarest.co.il/,+972 4-632-2352,Kosher restaurant,https://www.google.com/maps/search/?api=1&query=Opera%20Yemenite%20Restaurant&query_place_id=ChIJxWVopUYSHRURKYzEPR7Vjow
כנענייה - Knaaniya,4.6,909,midreshet ben gurion,midreshet ben gurion (sde boker),,IL,https://www.facebook.com/knaaniya/,+972 58-727-4965,Coffee shop,https://www.google.com/maps/search/?api=1&query=%D7%9B%D7%A0%D7%A2%D7%A0%D7%99%D7%99%D7%94%20-%20Knaaniya&query_place_id=ChIJDe9dRWYZAhUR9meXXe133W4
Wood Grill Restaurant מסעדת גריל עץ,4.3,348,Road 8900,Safed,,IL,https://www.ranchhouse.co.il/%D7%A8%D7%90%D7%A0%D7%A5-%D7%94%D7%90%D7%95%D7%A1-%D7%9E%D7%A6%D7%A4%D7%94-%D7%94%D7%99%D7%9E%D7%99%D7%9D,+972 4-699-4523,Restaurant,https://www.google.com/maps/search/?api=1&query=Wood%20Grill%20Restaurant%20%D7%9E%D7%A1%D7%A2%D7%93%D7%AA%20%D7%92%D7%A8%D7%99%D7%9C%20%D7%A2%D7%A5&query_place_id=ChIJTW1SAlwjHBURhKb5U7pPHbo
Little Tiberias,4.2,1245,HaKishon St 1,Tiberias,,IL,https://littletiberias.co.il/,+972 4-679-2806,Restaurant,https://www.google.com/maps/search/?api=1&query=Little%20Tiberias&query_place_id=ChIJD7sY2Es-HBUR18Skfsq-wP8
